"","OBJECTID","LANDYADDRE","LANDXADDRE","ADDRESSPOS","PHOTOURL","NAME","HYPERLINK","DESCRIPTIO","ADDRESSUNI","ADDRESSSTR","ADDRESSFLO","ADDRESSBUI","INC_CRC","FMEL_UPD_D","ADDRESSBLO","X_ADDR","Y_ADDR"
"1",1,39127.5335,32023.5559,555889,NA,"Serangoon Garden Secondary School","http://www.icanbook.com.sg/icbnew/Facility/Public/UI/BasicSearch.aspx?CLR=Y","Opening Hours (Indoor Sports Hall): 
Sat: 3.00 pm to 9.00 pm, Sun: 9.00 am to 9.00 pm 
Opening Hours (Field): 
Sat: 3.00 pm to 7.00 pm, Sun: 9.00 am to 7.00 pm 
Facilities: 
Chargeable Field, Indoor Sports Hall 
Sports 
Football, Badminton",NA,"21 Serangoon North Ave 1",NA,NA,"A373C43FB0F0BFD1",2014-04-17,NA,32023.5559,39127.5335
"2",2,35813.3616,17602.8945,609604,NA,"Shuqun Secondary School","http://www.icanbook.com.sg/icbnew/Facility/Public/UI/BasicSearch.aspx?CLR=Y","Opening Hours (Indoor Sports Hall): 
Sat: 3.00 pm to 9.00 pm, Sun: 9.00 am to 9.00 pm 
Opening Hours (Field): 
Sat: 3.00 pm to 7.00 pm, Sun: 9.00 am to 7.00 pm 
Facilities: 
Chargeable Field, Indoor Sports Hall 
Sports 
Football, Badminton",NA,"450 Jurong East St 21",NA,NA,"D15C8977647455C7",2014-04-17,NA,17602.8945,35813.3616
"3",3,36526.1709,16438.0818,609517,NA,"Jurong East Sports and Recreation Centre","http://www.icanbook.com.sg/","Opening Hours (Tennis / Squash courts) 
NA 
Opening Hours (Futsal Field) 
NA 
Opening Hours (Stadium) 
7.00am to 7.30pm 
Opening Hours (Sports Hall) 
7.00am - 10.00pm 
Facilities: 
Jurong East Sports Hall, Jurong East Stadium, Jurong East Swimming Comple",NA,"21 Jurong East Street 31 S(609517)",NA,NA,"587475188A525574",2014-04-17,NA,16438.0817,36526.1709
"4",4,31522.6119,20388.6901,127368,NA,"Kent Ridge Secondary School","http://www.icanbook.com.sg/icbnew/Facility/Public/UI/BasicSearch.aspx?CLR=Y","Opening Hours (Indoor Sports Hall): 
Sat: 3.00 pm to 9.00 pm, Sun: 9.00 am to 9.00 pm 
Opening Hours (Field): 
Sat: 3.00 pm to 7.00 pm, Sun: 9.00 am to 7.00 pm 
Facilities: 
Chargeable Field, Indoor Sports Hall 
Sports 
Football, Badminton",NA,"147 West Coast Road",NA,NA,"13636AB1992A68D3",2014-04-17,NA,20388.6901,31522.6118
"5",5,41334.6115,17749.5093,689333,NA,"Kranji Secondary School","http://www.icanbook.com.sg/icbnew/Facility/Public/UI/BasicSearch.aspx?CLR=Y","Opening Hours (Indoor Sports Hall): 
NA 
Opening Hours (Field): 
Sat: 3.00 pm to 7.00 pm, Sun: 9.00 am to 7.00 pm 
Facilities: 
Chargeable Field 
Sports 
Football",NA,"61 Choa Chu Kang Street 51",NA,NA,"980CD25E2E797A7A",2014-04-17,NA,17749.5093,41334.6115
"6",6,39182.5801,41646.0418,519419,NA,"Loyang Primary School","http://www.icanbook.com.sg/icbnew/Facility/Public/UI/BasicSearch.aspx?CLR=Y","Opening Hours (Indoor Sports Hall): 
NA 
Opening Hours (Field): 
Sat: 3.00 pm to 7.00 pm, Sun: 9.00 am to 7.00 pm 
Facilities: 
Free To Play Field 
Sports 
Free Play",NA,"3 Pasir Ris Drive 6",NA,NA,"DCE19209600A3C64",2014-04-17,NA,41646.0417,39182.58
"7",7,46482.4188,21622.2165,739110,NA,"Marsiling Secondary School","http://www.icanbook.com.sg/icbnew/Facility/Public/UI/BasicSearch.aspx?CLR=Y","Opening Hours (Indoor Sports Hall): 
NA 
Opening Hours (Field): 
Sat: 3.00 pm to 7.00 pm, Sun: 9.00 am to 7.00 pm 
Facilities: 
Chargeable Field 
Sports 
Football",NA,"12 Marsiling Road",NA,NA,"FFD9C0F45648A959",2014-04-17,NA,21622.2165,46482.4188
"8",8,39858.8967,39600.0301,518799,NA,"Meridian Junior College","http://www.icanbook.com.sg/icbnew/Facility/Public/UI/BasicSearch.aspx?CLR=Y","Opening Hours (Indoor Sports Hall): 
NA 
Opening Hours (Field): 
Mon - Fri: 7.00 pm to 9.00 pm, Sat: 3.00 pm to 9.00 pm, Sun: 9.00 am to 9.00 pm 
Facilities: 
Chargeable Field 
Sports 
Football",NA,"21 Pasir Ris Street 71",NA,NA,"6060F66926D8A65E",2014-04-17,NA,39600.0301,39858.8967
"9",9,39773.6208,39331.8267,518798,NA,"Meridian Primary School","http://www.icanbook.com.sg/icbnew/Facility/Public/UI/BasicSearch.aspx?CLR=Y","Opening Hours (Indoor Sports Hall): 
NA 
Opening Hours (Field): 
Sat: 3.00 pm to 7.00 pm, Sun: 9.00 am to 7.00 pm 
Facilities: 
Free To Play Field 
Sports 
Free Play",NA,"20 Pasir Ris Street 71",NA,NA,"BD78D2A3B08091A7",2014-04-17,NA,39331.8267,39773.6207
"10",10,41410.8079,18510.275,689236,NA,"Choa Chu Kang Sports and Recreation Centre","http://www.icanbook.com.sg/","Opening Hours (Tennis / Squash courts) 
7.00am - 10.00pm 
Opening Hours (Futsal Field) 
NA 
Opening Hours (Stadium) 
7.00am - 10.00pm (Free admission for jogging from 4.30 am - 8.30 pm except when stadium is exclusively booked.) 
Opening Hours (Sports Ha",NA,"1 Choa Chu Kang Street 53 S(689236)",NA,NA,"0BAC30C453C535C5",2014-04-17,NA,18510.275,41410.8079
"11",11,32590.9976,20381.362,129907,NA,"Clementi Sports and Recreation Centre","http://www.icanbook.com.sg/","Opening Hours (Tennis / Squash courts) 
NA 
Opening Hours (Futsal Field) 
NA 
Opening Hours (Stadium) 
NA 
Opening Hours (Sports Hall) 
7.00am - 10.00pm 
Facilities: 
Clementi Sports Hall, Clementi Swimming Complex, Clementi ClubFITT Gym",NA,"518 Clementi Avenue 3 S(129907)",NA,NA,"166022F7A1F1F978",2014-04-17,NA,20381.3619,32590.9976
"12",12,30191.0662,26442.1793,158790,NA,"Delta Sports and Recreation Centre","http://www.icanbook.com.sg/","Opening Hours (Tennis / Squash courts) 
NA 
Opening Hours (Futsal Field) 
7.00am - 7.00pm 
Opening Hours (Stadium) 
NA 
Opening Hours (Sports Hall) 
7.00 am - 10.00 pm 
Facilities: 
Delta Sports Hall, Delta Swimming Complex,Delta ClubFITT Gym, Delta Hock",NA,"900 Tiong Bahru Road NA S(158790)",NA,NA,"8924D9B1EA1FE0CD",2014-04-17,NA,26442.1793,30191.0661
"13",13,39162.8728,34093.7336,538832,NA,"Hougang Sports and Recreation Centre","http://www.icanbook.com.sg/","Opening Hours (Tennis / Squash courts) 
NA 
Opening Hours (Futsal Field) 
NA 
Opening Hours (Stadium) 
7.00am - 10.00pm (Free admission for Qigong at 6.30am and jogging from 4.30 am - 8.30 pm except when stadium is exclusively booked.) 
Opening Hours (Sp",NA,"93 Hougang Avenue 4 S(538832)",NA,NA,"637443696361DEDF",2014-04-17,NA,34093.7335,39162.8728
"14",14,36638.1611,12580.9823,649075,NA,"Pioneer Secondary School","http://www.icanbook.com.sg/icbnew/Facility/Public/UI/BasicSearch.aspx?CLR=Y","Opening Hours (Indoor Sports Hall): 
NA 
Opening Hours (Field): 
Sat: 3.00 pm to 7.00 pm, Sun: 9.00 am to 7.00 pm 
Facilities: 
Chargeable Field 
Sports 
Football",NA,"21 Jurong West Street 81",NA,NA,"FE46B37B225E61D3",2014-04-17,NA,12580.9823,36638.1611
"15",15,37796.1158,39355.2033,529067,NA,"Poi Ching Primary School","http://www.icanbook.com.sg/icbnew/Facility/Public/UI/BasicSearch.aspx?CLR=Y","Opening Hours (Indoor Sports Hall): 
Fri: 7.00 pm to 9.00pm, Sat: 3.00 pm to 9.00 pm, Sun: 9.00 am to 9.00 pm 
Opening Hours (Field): 
NA 
Facilities: 
Indoor Sports Hall 
Sports 
Badminton",NA,"21 Tampines Street 71",NA,NA,"88B5D53901FF7E39",2014-04-17,NA,39355.2033,37796.1158
"16",16,42665.6542,36435.5866,828870,NA,"Punggol Secondary School","http://www.icanbook.com.sg/icbnew/Facility/Public/UI/BasicSearch.aspx?CLR=Y","Opening Hours (Indoor Sports Hall): 
Sat: 3.00 pm to 9.00 pm, Sun: 9.00 am to 9.00 pm 
Opening Hours (Field): 
Sat: 3.00 pm to 7.00 pm, Sun: 9.00 am to 7.00 pm 
Facilities: 
Chargeable Field, Indoor Sports Hall 
Sports 
Football, Badminton",NA,"51 Edgefield Plains",NA,NA,"CBC8EC4AFC6CCE8E",2014-04-17,NA,36435.5866,42665.6542
"17",17,36511.346,40859.6732,529454,NA,"Qiaonan Primary School","http://www.icanbook.com.sg/icbnew/Facility/Public/UI/BasicSearch.aspx?CLR=Y","Opening Hours (Indoor Sports Hall): 
NA 
Opening Hours (Field): 
Sat: 3.00 pm to 7.00 pm, Sun: 9.00 am to 7.00 pm 
Facilities: 
Free To Play Field 
Sports 
Free Play",NA,"15 Tampines Street 11",NA,NA,"0090C4FE8140FCBE",2014-04-17,NA,40859.6732,36511.346
"18",18,44558.4502,27746.8815,768689,NA,"Naval Base Secondary School","http://www.icanbook.com.sg/icbnew/Facility/Public/UI/BasicSearch.aspx?CLR=Y","Opening Hours (Indoor Sports Hall): 
Sat: 3.00 pm to 9.00 pm, Sun: 9.00 am to 9.00 pm 
Opening Hours (Field): 
Sat: 3.00 pm to 7.00 pm, Sun: 9.00 am to 7.00 pm 
Facilities: 
Chargeable Field, Indoor Sports Hall 
Sports 
Football, Badminton",NA,"901 Yishun Ring Road",NA,NA,"ED1F591969F2D678",2014-04-17,NA,27746.8815,44558.4502
"19",19,31353.5517,24271.5226,148812,NA,"New Town Primary School","http://www.icanbook.com.sg/icbnew/Facility/Public/UI/BasicSearch.aspx?CLR=Y","Opening Hours (Indoor Sports Hall): 
NA 
Opening Hours (Field): 
Sat: 3.00 pm to 7.00 pm, Sun: 9.00 am to 7.00 pm 
Facilities: 
Free To Play Field 
Sports 
Free Play",NA,"300 Tanglin Halt Road",NA,NA,"3000ACDE7A95465A",2014-04-17,NA,24271.5225,31353.5516
"20",20,45510.9006,29250.7931,768680,NA,"North View Secondary School","http://www.icanbook.com.sg/icbnew/Facility/Public/UI/BasicSearch.aspx?CLR=Y","Opening Hours (Indoor Sports Hall): 
NA 
Opening Hours (Field): 
Sat: 3.00 pm to 7.00 pm, Sun: 9.00 am to 7.00 pm 
Facilities: 
Chargeable Field 
Sports 
Football",NA,"530 Yishun Ring Road",NA,NA,"A08678E71A2E8316",2014-04-17,NA,29250.7931,45510.9005
"21",21,40320.5187,35294.5745,545081,NA,"North Vista Secondary School","http://www.icanbook.com.sg/icbnew/Facility/Public/UI/BasicSearch.aspx?CLR=Y","Opening Hours (Indoor Sports Hall): 
NA 
Opening Hours (Field): 
Sat: 3.00 pm to 7.00 pm, Sun: 9.00 am to 7.00 pm 
Facilities: 
Chargeable Field 
Sports 
Football",NA,"11 Rivervale Link",NA,NA,"26A4E17869AE9562",2014-04-17,NA,35294.5745,40320.5186
"22",22,44742.3574,28830.2414,769026,NA,"Northland Primary School","http://www.icanbook.com.sg/icbnew/Facility/Public/UI/BasicSearch.aspx?CLR=Y","Opening Hours (Indoor Sports Hall): 
NA 
Opening Hours (Field): 
Sat: 3.00 pm to 7.00 pm, Sun: 9.00 am to 7.00 pm 
Facilities: 
Free To Play Field 
Sports 
Free Play",NA,"15 Yishun Avenue 4",NA,NA,"6921D321E73F39A7",2014-04-17,NA,28830.2413,44742.3574
"23",23,44121.5906,28559.3432,768454,NA,"Orchid Park Secondary School","http://www.icanbook.com.sg/icbnew/Facility/Public/UI/BasicSearch.aspx?CLR=Y","Opening Hours (Indoor Sports Hall): 
NA 
Opening Hours (Field): 
Sat: 3.00 pm to 7.00 pm, Sun: 9.00 am to 7.00 pm 
Facilities: 
Chargeable Field 
Sports 
Football",NA,"10 Yishun Street 81",NA,NA,"D00D850492925FBB",2014-04-17,NA,28559.3432,44121.5906
"24",24,36824.8881,40346.8266,529427,NA,"Tampines Secondary School","http://www.icanbook.com.sg/icbnew/Facility/Public/UI/BasicSearch.aspx?CLR=Y","Opening Hours (Indoor Sports Hall): 
NA 
Opening Hours (Field): 
Sat: 3.00 pm to 7.00 pm, Sun: 9.00 am to 7.00 pm 
Facilities: 
Chargeable Field 
Sports 
Football",NA,"252 Tampines St 12",NA,NA,"1E856F8B84A6907E",2014-04-17,NA,40346.8266,36824.8881
"25",25,33117.0767,40668.0714,465561,NA,"Temasek Secondary School","http://www.icanbook.com.sg/icbnew/Facility/Public/UI/BasicSearch.aspx?CLR=Y","Opening Hours (Indoor Sports Hall): 
NA 
Opening Hours (Field): 
Sat: 3.00 pm to 7.00 pm, Sun: 9.00 am to 7.00 pm 
Facilities: 
Chargeable Field 
Sports 
Football",NA,"600 Upper East Coast Road",NA,NA,"CB8AF11A29839908",2014-04-17,NA,40668.0713,33117.0767
"26",26,42742.7761,18393.1845,688268,NA,"Unity Primary School","http://www.icanbook.com.sg/icbnew/Facility/Public/UI/BasicSearch.aspx?CLR=Y","Opening Hours (Indoor Sports Hall): 
Sat: 3.00 pm to 9.00 pm, Sun: 9.00 am to 9.00 pm 
Opening Hours (Field): 
Sat: 3.00 pm to 7.00 pm, Sun: 9.00 am to 7.00 pm 
Facilities: 
Free To Play Field, Indoor Sports Hall 
Sports 
Free Play, Badminton",NA,"21 Choa Chu Kang Crescent",NA,NA,"5C0FC47A1DE4500F",2014-04-17,NA,18393.1845,42742.7761
"27",27,42391.0494,18286.6397,689143,NA,"Unity Secondary School","http://www.icanbook.com.sg/icbnew/Facility/Public/UI/BasicSearch.aspx?CLR=Y","Opening Hours (Indoor Sports Hall): 
Fri: 7.00 pm to 9.00pm, Sat: 3.00 pm to 9.00 pm, Sun: 9.00 am to 9.00 pm 
Opening Hours (Field): 
Sat: 3.00 pm to 7.00 pm, Sun: 9.00 am to 7.00 pm 
Facilities: 
Chargeable Field, Indoor Sports Hall 
Sports 
Football,",NA,"20 Choa Chu Kang St 62",NA,NA,"3EE5FB30C7972467",2014-04-17,NA,18286.6397,42391.0493
"28",28,41084.0398,19854.9259,677737,NA,"West Spring Secondary School","http://www.icanbook.com.sg/icbnew/Facility/Public/UI/BasicSearch.aspx?CLR=Y","Opening Hours (Indoor Sports Hall): 
Sat: 3.00 pm to 9.00 pm, Sun: 9.00 am to 9.00 pm 
Opening Hours (Field): 
Sat: 3.00 pm to 7.00 pm, Sun: 9.00 am to 7.00 pm 
Facilities: 
Chargeable Field, Indoor Sports Hall 
Sports 
Football, Badminton",NA,"61 Senja Road",NA,NA,"B717DD19E1823593",2014-04-17,NA,19854.9259,41084.0397
"29",29,37297.778,13351.7378,648350,NA,"Westwood Secondary School","http://www.icanbook.com.sg/icbnew/Facility/Public/UI/BasicSearch.aspx?CLR=Y","Opening Hours (Indoor Sports Hall): 
NA 
Opening Hours (Field): 
Sat: 3.00 pm to 7.00 pm, Sun: 9.00 am to 7.00 pm 
Facilities: 
Chargeable Field 
Sports 
Football",NA,"11 Jurong West Street 25",NA,NA,"25AF496D1330F134",2014-04-17,NA,13351.7378,37297.778
"30",30,46085.841,23222.6545,738079,NA,"Woodgrove Primary School","http://www.icanbook.com.sg/icbnew/Facility/Public/UI/BasicSearch.aspx?CLR=Y","Opening Hours (Indoor Sports Hall): 
NA 
Opening Hours (Field): 
Sat: 3.00 pm to 7.00 pm, Sun: 9.00 am to 7.00 pm 
Facilities: 
Free To Play Field 
Sports 
Free Play",NA,"2 Woodlands Drive 14",NA,NA,"A6B7F3AFAD14A4B7",2014-04-17,NA,23222.6545,46085.841
"31",31,45532.362,23882.223,738990,NA,"Woodgrove Secondary School","http://www.icanbook.com.sg/icbnew/Facility/Public/UI/BasicSearch.aspx?CLR=Y","Opening Hours (Indoor Sports Hall): 
NA 
Opening Hours (Field): 
Sat: 3.00 pm to 7.00 pm, Sun: 9.00 am to 7.00 pm 
Facilities: 
Chargeable Field 
Sports 
Football",NA,"3 Woodlands Ave 6",NA,NA,"CCB609234EE1D89B",2014-04-17,NA,23882.223,45532.3619
"32",32,46493.6744,23376.4658,738853,NA,"Woodlands Primary School","http://www.icanbook.com.sg/icbnew/Facility/Public/UI/BasicSearch.aspx?CLR=Y","Opening Hours (Indoor Sports Hall): 
NA 
Opening Hours (Field): 
Sat: 3.00 pm to 7.00 pm, Sun: 9.00 am to 7.00 pm 
Facilities: 
Free To Play Field 
Sports 
Free Play",NA,"10 Woodlands Drive 50",NA,NA,"6F6CB38C68CB73CE",2014-04-17,NA,23376.4658,46493.6743
"33",33,46423.6973,24350.0767,738239,NA,"Woodlands Ring Secondary School","http://www.icanbook.com.sg/icbnew/Facility/Public/UI/BasicSearch.aspx?CLR=Y","Opening Hours (Indoor Sports Hall): 
NA 
Opening Hours (Field): 
Sat: 3.00 pm to 7.00 pm, Sun: 9.00 am to 7.00 pm 
Facilities: 
Chargeable Field 
Sports 
Football",NA,"10 Woodlands Ring Road",NA,NA,"629D4657CC20A948",2014-04-17,NA,24350.0767,46423.6973
"34",34,37776.2619,34359.7423,538882,NA,"Xinghua Primary School","http://www.icanbook.com.sg/icbnew/Facility/Public/UI/BasicSearch.aspx?CLR=Y","Opening Hours (Indoor Sports Hall): 
Fri: 7.00 pm to 9.00pm, Sat: 3.00 pm to 9.00 pm, Sun: 9.00 am to 9.00 pm 
Opening Hours (Field): 
NA 
Facilities: 
Indoor Sports Hall 
Sports 
Badminton",NA,"45 Hougang Ave 1",NA,NA,"30E0C7EE4B5C197C",2014-04-17,NA,34359.7423,37776.2619
"35",35,36093.2705,11796.8866,649036,NA,"Xingnan Primary School","http://www.icanbook.com.sg/icbnew/Facility/Public/UI/BasicSearch.aspx?CLR=Y","Opening Hours (Indoor Sports Hall): 
NA 
Opening Hours (Field): 
Sat: 3.00 pm to 7.00 pm, Sun: 9.00 am to 7.00 pm 
Facilities: 
Free To Play Field 
Sports 
Free Play",NA,"5 Jurong West Street 91",NA,NA,"8E14C95E828EA33F",2014-04-17,NA,11796.8865,36093.2705
"36",36,39969.6374,28948.0449,569868,NA,"Yio Chu Kang Secondary School","http://www.icanbook.com.sg/icbnew/Facility/Public/UI/BasicSearch.aspx?CLR=Y","Opening Hours (Indoor Sports Hall): 
Fri: 7.00 pm to 9.00pm, Sat: 3.00 pm to 9.00 pm, Sun: 9.00 am to 9.00 pm 
Opening Hours (Field): 
Sat: 3.00 pm to 7.00 pm, Sun: 9.00 am to 7.00 pm 
Facilities: 
Chargeable Field, Indoor Sports Hall 
Sports 
Football,",NA,"3063 Ang Mo Kio Avenue 5",NA,NA,"D3CC9A52252425CC",2014-04-17,NA,28948.0449,39969.6373
"37",37,45541.099,27498.7973,768516,NA,"Yishun Secondary School","http://www.icanbook.com.sg/icbnew/Facility/Public/UI/BasicSearch.aspx?CLR=Y","Opening Hours (Indoor Sports Hall): 
Sat: 3.00 pm to 9.00 pm, Sun: 9.00 am to 9.00 pm 
Opening Hours (Field): 
NA 
Facilities: 
Indoor Sports Hall 
Sports 
Badminton",NA,"4 Yishun Street 71",NA,NA,"1516C42DD1332D03",2014-04-17,NA,27498.7972,45541.0989
"38",38,46004.359,28531.4577,768610,NA,"Yishun Town Secondary School","http://www.icanbook.com.sg/icbnew/Facility/Public/UI/BasicSearch.aspx?CLR=Y","Opening Hours (Indoor Sports Hall): 
Sat: 3.00 pm to 9.00 pm, Sun: 9.00 am to 9.00 pm 
Opening Hours (Field): 
NA 
Facilities: 
Indoor Sports Hall 
Sports 
Badminton",NA,"6 Yishun Street 21",NA,NA,"9F57EF64C30680E3",2014-04-17,NA,28531.4577,46004.3589
"39",39,36118.213,17713.3918,609558,NA,"Yuhua Primary School","http://www.icanbook.com.sg/icbnew/Facility/Public/UI/BasicSearch.aspx?CLR=Y","Opening Hours (Indoor Sports Hall): 
NA 
Opening Hours (Field): 
Sat: 3.00 pm to 7.00 pm, Sun: 9.00 am to 7.00 pm 
Facilities: 
Free To Play Field 
Sports 
Free Play",NA,"158 Jurong East Street 24",NA,NA,"D5D4C0F17A63000D",2014-04-17,NA,17713.3918,36118.2129
"40",40,36061.8608,19871.8399,658712,NA,"Yusof Ishak Secondary School","http://www.icanbook.com.sg/icbnew/Facility/Public/UI/BasicSearch.aspx?CLR=Y","Opening Hours (Indoor Sports Hall): 
Fri: 7.00 pm to 9.00pm, Sat: 3.00 pm to 9.00 pm, Sun: 9.00 am to 9.00 pm 
Opening Hours (Field): 
Sat: 3.00 pm to 7.00 pm, Sun: 9.00 am to 7.00 pm 
Facilities: 
Chargeable Field, Indoor Sports Hall 
Sports 
Football,",NA,"11 Bukit Batok Street 25",NA,NA,"770EB22EF9F632D3",2014-04-17,NA,19871.8399,36061.8607
"41",41,37668.4145,34358.9187,538884,NA,"Yuying Secondary School","http://www.icanbook.com.sg/icbnew/Facility/Public/UI/BasicSearch.aspx?CLR=Y","Opening Hours (Indoor Sports Hall): 
Sat: 3.00 pm to 9.00 pm, Sun: 9.00 am to 9.00 pm 
Opening Hours (Field): 
NA 
Facilities: 
Indoor Sports Hall 
Sports 
Badminton",NA,"47 Hougang Ave 1",NA,NA,"E56D1D2D307C22B9",2014-04-17,NA,34358.9187,37668.4145
"42",42,29634.6893,27205.1092,169485,NA,"Zhang De Primary School","http://www.icanbook.com.sg/icbnew/Facility/Public/UI/BasicSearch.aspx?CLR=Y","Opening Hours (Indoor Sports Hall): 
NA 
Opening Hours (Field): 
Sat: 3.00 pm to 7.00 pm, Sun: 9.00 am to 7.00 pm 
Facilities: 
Free To Play Field 
Sports 
Free Play",NA,"51 Jalan Membina",NA,NA,"A6AEEED66CD7AC8F",2014-04-17,NA,27205.1091,29634.6893
"43",43,38029.0482,32056.3104,556095,NA,"Zhonghua Primary School","http://www.icanbook.com.sg/icbnew/Facility/Public/UI/BasicSearch.aspx?CLR=Y","Opening Hours (Indoor Sports Hall): 
Sat: 3.00 pm to 9.00 pm, Sun: 9.00 am to 9.00 pm 
Opening Hours (Field): 
NA 
Facilities: 
Indoor Sports Hall 
Sports 
Badminton",NA,"12 Serangoon Ave 4",NA,NA,"B80E9F0D8825B474",2014-04-17,NA,32056.3103,38029.0482
"44",44,37509.2021,29973.1649,579783,NA,"Bishan Sports and Recreation Centre","http://www.icanbook.com.sg/","Opening Hours (Tennis / Squash courts) 
NA 
Opening Hours (Futsal Field) 
NA 
Opening Hours (Stadium) 
7.00am - 10.00pm (Free admission for jogging from 4.30 am - 8.30 pm except when stadium is exclusively booked.) 
Opening Hours (Sports Hall) 
7.00am -",NA,"5 Bishan Street  14 S(579783)",NA,NA,"257508784CCD1221",2014-04-17,NA,29973.1649,37509.202
"45",45,32299.2278,35145.4785,438796,NA,"Tanjong Katong Secondary School","http://www.icanbook.com.sg/icbnew/Facility/Public/UI/BasicSearch.aspx?CLR=Y","Opening Hours (Indoor Sports Hall): 
NA 
Opening Hours (Field): 
Sat: 3.00 pm to 7.00 pm, Sun: 9.00 am to 7.00 pm 
Facilities: 
Chargeable Field 
Sports 
Football",NA,"130 Haig Road",NA,NA,"B42EE6B0615C712F",2014-04-17,NA,35145.4785,32299.2278
"46",46,40563.9595,19863.4754,677742,NA,"West View Primary School","http://www.icanbook.com.sg/icbnew/Facility/Public/UI/BasicSearch.aspx?CLR=Y","Opening Hours (Indoor Sports Hall): 
NA 
Opening Hours (Field): 
Sat: 3.00 pm to 7.00 pm, Sun: 9.00 am to 7.00 pm 
Facilities: 
Free To Play Field 
Sports 
Free Play",NA,"31 Senja Road",NA,NA,"23449E604A7A445C",2014-04-17,NA,19863.4753,40563.9594
"47",47,38659.2707,30112.8951,569277,NA,"Deyi Secondary School","http://www.icanbook.com.sg/icbnew/Facility/Public/UI/BasicSearch.aspx?CLR=Y","Opening Hours (Indoor Sports Hall): 
NA 
Opening Hours (Field): 
Sat: 3.00 pm to 7.00 pm, Sun: 9.00 am to 7.00 pm 
Facilities: 
Chargeable Field 
Sports 
Football",NA,"1 Ang Mo Kio Street 42",NA,NA,"483630E55FBAC4C9",2014-04-17,NA,30112.8951,38659.2707
"48",48,45839.9461,21749.0554,739062,NA,"Fuchun Secondary School","http://www.icanbook.com.sg/icbnew/Facility/Public/UI/BasicSearch.aspx?CLR=Y","Opening Hours (Indoor Sports Hall): 
NA 
Opening Hours (Field): 
Sat: 3.00 pm to 7.00 pm, Sun: 9.00 am to 7.00 pm 
Facilities: 
Chargeable Field 
Sports 
Football",NA,"21 Woodlands Avenue 1",NA,NA,"A72C0E87B07CDA25",2014-04-17,NA,21749.0554,45839.9461
"49",49,35398.4662,17243.9704,609647,NA,"Fuhua Primary School","http://www.icanbook.com.sg/icbnew/Facility/Public/UI/BasicSearch.aspx?CLR=Y","Opening Hours (Indoor Sports Hall): 
NA 
Opening Hours (Field): 
Sat: 3.00 pm to 7.00 pm, Sun: 9.00 am to 7.00 pm 
Facilities: 
Free To Play Field 
Sports 
Free Play",NA,"65 Jurong East Street 13",NA,NA,"AD4250FEAC77A075",2014-04-17,NA,17243.9704,35398.4661
"50",50,36556.9112,16141.1655,649410,NA,"Fuhua Secondary School","http://www.icanbook.com.sg/icbnew/Facility/Public/UI/BasicSearch.aspx?CLR=Y","Opening Hours (Indoor Sports Hall): 
Sat: 3.00 pm to 9.00 pm, Sun: 9.00 am to 9.00 pm 
Opening Hours (Field): 
Sat: 3.00 pm to 7.00 pm, Sun: 9.00 am to 7.00 pm 
Facilities: 
Chargeable Field, Indoor Sports Hall 
Sports 
Football, Badminton",NA,"5 Jurong West Street 41",NA,NA,"94733DB881B4329C",2014-04-17,NA,16141.1655,36556.9112
"51",51,37714.5769,40859.7631,529176,NA,"Gongshang Primary School","http://www.icanbook.com.sg/icbnew/Facility/Public/UI/BasicSearch.aspx?CLR=Y","Opening Hours (Indoor Sports Hall): 
Fri: 7.00 pm to 9.00pm, Sat: 3.00 pm to 9.00 pm, Sun: 9.00 am to 9.00 pm 
Opening Hours (Field): 
NA 
Facilities: 
Indoor Sports Hall 
Sports 
Badminton",NA,"1 Tampines Street 42",NA,NA,"E0F1BB26E2721FC3",2014-04-17,NA,40859.7631,37714.5768
"52",52,42032.7752,36819.1792,828848,NA,"Greendale Primary School","http://www.icanbook.com.sg/icbnew/Facility/Public/UI/BasicSearch.aspx?CLR=Y","Opening Hours (Indoor Sports Hall): 
Sat: 3.00 pm to 9.00 pm, Sun: 9.00 am to 9.00 pm 
Opening Hours (Field): 
NA 
Facilities: 
Indoor Sports Hall 
Sports 
Badminton",NA,"50 Edgefield Plains",NA,NA,"D1481619760F7E34",2014-04-17,NA,36819.1792,42032.7752
"53",53,42094.4222,36722.8223,828866,NA,"Greendale Secondary School","http://www.icanbook.com.sg/icbnew/Facility/Public/UI/BasicSearch.aspx?CLR=Y","Opening Hours (Indoor Sports Hall): 
NA 
Opening Hours (Field): 
Sat: 3.00 pm to 7.00 pm, Sun: 9.00 am to 7.00 pm 
Facilities: 
Chargeable Field 
Sports 
Football",NA,"51 Edgedale Plains",NA,NA,"E71E5C37DB87BD79",2014-04-17,NA,36722.8223,42094.4221
"54",54,39030.7917,42399.9751,518969,NA,"Greenview Secondary School","http://www.icanbook.com.sg/icbnew/Facility/Public/UI/BasicSearch.aspx?CLR=Y","Opening Hours (Indoor Sports Hall): 
NA 
Opening Hours (Field): 
Sat: 3.00 pm to 7.00 pm, Sun: 9.00 am to 7.00 pm 
Facilities: 
Chargeable Field 
Sports 
Football",NA,"15 Pasir Ris Street 21",NA,NA,"09DCF9A934B932D2",2014-04-17,NA,42399.9751,39030.7916
"55",55,32440.053,30978.9945,207542,NA,"Jalan Besar Sports and Recreation Centre","http://www.ssc.gov.sg/publish/Corporate/en/participation/hotspot/sports_facility.html?","Opening Hours (Stadium) 
7.00am to 10.00pm (Not open to public for jogging)Opening Hours (Pool)8.00am - 9.30pm 
Facilities:Jalan Besar Swimming Complex, Jalan Besar Stadium",NA,"100 Tyrwhitt Road NA S(207542)",NA,NA,"0A247A003D46AA31",2014-04-17,NA,30978.9945,32440.0529
"56",56,33488.1695,18255.0832,608784,NA,"Commonwealth Secondary School","http://www.icanbook.com.sg/icbnew/Facility/Public/UI/BasicSearch.aspx?CLR=Y","Opening Hours (Indoor Sports Hall): 
Fri: 7.00 pm to 9.00pm, Sat: 3.00 pm to 9.00 pm, Sun: 9.00 am to 9.00 pm 
Opening Hours (Field): 
Sat: 3.00 pm to 7.00 pm, Sun: 9.00 am to 7.00 pm 
Facilities: 
Chargeable Field, Indoor Sports Hall 
Sports 
Football,",NA,"698 West Coast Road",NA,NA,"30EB70930C408AA4",2014-04-17,NA,18255.0832,33488.1695
"57",57,42012.2662,35406.5264,545083,NA,"Compassvale Secondary School","http://www.icanbook.com.sg/icbnew/Facility/Public/UI/BasicSearch.aspx?CLR=Y","Opening Hours (Indoor Sports Hall): 
NA 
Opening Hours (Field): 
Sat: 3.00 pm to 7.00 pm, Sun: 9.00 am to 7.00 pm 
Facilities: 
Chargeable Field 
Sports 
Football",NA,"51 Compassvale Crescent",NA,NA,"337D2B97B7EC7CB8",2014-04-17,NA,35406.5263,42012.2662
"58",58,38938.047,41067.8213,518902,NA,"Coral Primary School","http://www.icanbook.com.sg/icbnew/Facility/Public/UI/BasicSearch.aspx?CLR=Y","Opening Hours (Indoor Sports Hall): 
NA 
Opening Hours (Field): 
Sat: 3.00 pm to 7.00 pm, Sun: 9.00 am to 7.00 pm 
Facilities: 
Free To Play Field 
Sports 
Free Play",NA,"20 Pasir Ris Street 51",NA,NA,"DDD7D27ABB846B98",2014-04-17,NA,41067.8213,38938.047
"59",59,37066.2772,14006.5235,648347,NA,"Corporation Primary School","http://www.icanbook.com.sg/icbnew/Facility/Public/UI/BasicSearch.aspx?CLR=Y","Opening Hours (Indoor Sports Hall): 
NA 
Opening Hours (Field): 
Sat: 3.00 pm to 7.00 pm, Sun: 9.00 am to 7.00 pm 
Facilities: 
Free To Play Field 
Sports 
Free Play",NA,"31 Jurong West Street 24",NA,NA,"6A374B87E0B18D90",2014-04-17,NA,14006.5235,37066.2772
"60",60,30634.2204,26244.4775,247961,NA,"Crescent Girls' School","http://www.icanbook.com.sg/icbnew/Facility/Public/UI/BasicSearch.aspx?CLR=Y","Opening Hours (Indoor Sports Hall): 
Fri: 7.00 pm to 9.00pm, Sat: 3.00 pm to 9.00 pm, Sun: 9.00 am to 9.00 pm 
Opening Hours (Field): 
Sat: 3.00 pm to 7.00 pm, Sun: 9.00 am to 7.00 pm 
Facilities: 
Chargeable Field, Indoor Sports Hall 
Sports 
Football,",NA,"357 Tanglin Road",NA,NA,"6BC657E88026524F",2014-04-17,NA,26244.4775,30634.2204
"61",61,35309.6159,37778.2856,479226,NA,"Damai Primary School","http://www.icanbook.com.sg/icbnew/Facility/Public/UI/BasicSearch.aspx?CLR=Y","Opening Hours (Indoor Sports Hall): 
NA 
Opening Hours (Field): 
Sat: 3.00 pm to 7.00 pm, Sun: 9.00 am to 7.00 pm 
Facilities: 
Free To Play Field 
Sports 
Free Play",NA,"52 Bedok Reservoir Crescent",NA,NA,"FE61B26984B500E1",2014-04-17,NA,37778.2856,35309.6159
"62",62,34055.3324,31039.9598,327919,NA,"Bendemeer Secondary School","http://www.icanbook.com.sg/icbnew/Facility/Public/UI/BasicSearch.aspx?CLR=Y","Opening Hours (Indoor Sports Hall): 
Fri: 7.00 pm to 9.00pm, Sat: 3.00 pm to 9.00 pm, Sun: 9.00 am to 9.00 pm 
Opening Hours (Field): 
Sat: 3.00 pm to 7.00 pm, Sun: 9.00 am to 7.00 pm 
Facilities: 
Chargeable Field, Indoor Sports Hall 
Sports 
Football,",NA,"1 St. Wilfred Rd",NA,NA,"0302509DA2A532FF",2014-04-17,NA,31039.9598,34055.3323
"63",63,38597.3118,28012.0373,575565,NA,"Bishan Park Secondary School","http://www.icanbook.com.sg/icbnew/Facility/Public/UI/BasicSearch.aspx?CLR=Y","Opening Hours (Indoor Sports Hall): 
NA 
Opening Hours (Field): 
Sat: 3.00 pm to 7.00 pm, Sun: 9.00 am to 7.00 pm 
Facilities: 
Chargeable Field 
Sports 
Football",NA,"2 Sin Min Walk",NA,NA,"9E8FD8F7DAA2E18F",2014-04-17,NA,28012.0373,38597.3117
"64",64,28733.539,25253.3821,109100,NA,"Blangah Rise Primary School","http://www.icanbook.com.sg/icbnew/Facility/Public/UI/BasicSearch.aspx?CLR=Y","Opening Hours (Indoor Sports Hall): 
NA 
Opening Hours (Field): 
Sat: 3.00 pm to 7.00 pm, Sun: 9.00 am to 7.00 pm 
Facilities: 
Free To Play Field 
Sports 
Free Play",NA,"91 Telok Blangah Heights",NA,NA,"2CBE28DA4573E4CB",2014-04-17,NA,25253.3821,28733.539
"65",65,36036.9973,13379.9589,648354,NA,"Boon Lay Secondary School","http://www.icanbook.com.sg/icbnew/Facility/Public/UI/BasicSearch.aspx?CLR=Y","Opening Hours (Indoor Sports Hall): 
NA 
Opening Hours (Field): 
Sat: 3.00 pm to 7.00 pm, Sun: 9.00 am to 7.00 pm 
Facilities: 
Chargeable Field 
Sports 
Football",NA,"11 Jurong West Street 65",NA,NA,"62193ABEE5613124",2014-04-17,NA,13379.9589,36036.9973
"66",66,39196.25,32912.2973,547529,NA,"Bowen Secondary School","http://www.icanbook.com.sg/icbnew/Facility/Public/UI/BasicSearch.aspx?CLR=Y","Opening Hours (Indoor Sports Hall): 
NA 
Opening Hours (Field): 
Sat: 3.00 pm to 7.00 pm, Sun: 9.00 am to 7.00 pm 
Facilities: 
Chargeable Field 
Sports 
Football",NA,"2 Lorong Napiri",NA,NA,"6A9242704A6CD7B1",2014-04-17,NA,32912.2972,39196.25
"67",67,32202.8828,33938.121,399935,NA,"Broadrick Secondary School","http://www.icanbook.com.sg/icbnew/Facility/Public/UI/BasicSearch.aspx?CLR=Y","Opening Hours (Indoor Sports Hall): 
NA 
Opening Hours (Field): 
Sat: 3.00 pm to 7.00 pm, Sun: 9.00 am to 7.00 pm 
Facilities: 
Chargeable Field 
Sports 
Football",NA,"61 Dakota Crescent",NA,NA,"BAB9A1BF07FE1E06",2014-04-17,NA,33938.121,32202.8827
"68",68,39495.7837,20857.0252,679676,NA,"Bukit Panjang Primary School","http://www.icanbook.com.sg/icbnew/Facility/Public/UI/BasicSearch.aspx?CLR=Y","Opening Hours (Indoor Sports Hall): 
NA 
Opening Hours (Field): 
Sat: 3.00 pm to 7.00 pm, Sun: 9.00 am to 7.00 pm 
Facilities: 
Free To Play Field 
Sports 
Free Play",NA,"109 Cashew Road",NA,NA,"7EC4FD7D09732041",2014-04-17,NA,20857.0252,39495.7837
"69",69,36394.0332,18980.8121,659633,NA,"Bukit View Secondary School","http://www.icanbook.com.sg/icbnew/Facility/Public/UI/BasicSearch.aspx?CLR=Y","Opening Hours (Indoor Sports Hall): 
Sat: 3.00 pm to 9.00 pm, Sun: 9.00 am to 9.00 pm 
Opening Hours (Field): 
Sat: 3.00 pm to 7.00 pm, Sun: 9.00 am to 7.00 pm 
Facilities: 
Chargeable Field, Indoor Sports Hall 
Sports 
Football, Badminton",NA,"16 Bukit Batok Street 21",NA,NA,"8F695EF0FE215B2F",2014-04-17,NA,18980.812,36394.0331
"70",70,39390.6054,41795.8187,518935,NA,"Casuarina Primary School","http://www.icanbook.com.sg/icbnew/Facility/Public/UI/BasicSearch.aspx?CLR=Y","Opening Hours (Indoor Sports Hall): 
NA 
Opening Hours (Field): 
Sat: 3.00 pm to 7.00 pm, Sun: 9.00 am to 7.00 pm 
Facilities: 
Free To Play Field 
Sports 
Free Play",NA,"30 Pasir Ris Street 41",NA,NA,"761A6DC14E415AC0",2014-04-17,NA,41795.8186,39390.6053
"71",71,38964.062,21048.6173,679301,NA,"Chestnut Drive Secondary School","http://www.icanbook.com.sg/icbnew/Facility/Public/UI/BasicSearch.aspx?CLR=Y","Opening Hours (Indoor Sports Hall): 
Sat: 3.00 pm to 9.00 pm, Sun: 9.00 am to 9.00 pm 
Opening Hours (Field): 
Sat: 3.00 pm to 7.00 pm, Sun: 9.00 am to 7.00 pm 
Facilities: 
Chargeable Field, Basketball Court 
Sports 
Football, Basketball",NA,"58 Chestnut Drive",NA,NA,"986CAFCF97FA94EC",2014-04-17,NA,21048.6173,38964.062
"72",72,40593.0803,18960.1468,688845,NA,"Choa Chu Kang Secondary School","http://www.icanbook.com.sg/icbnew/Facility/Public/UI/BasicSearch.aspx?CLR=Y","Opening Hours (Indoor Sports Hall): 
NA 
Opening Hours (Field): 
Sat: 3.00 pm to 7.00 pm, Sun: 9.00 am to 7.00 pm 
Facilities: 
Chargeable Field 
Sports 
Football",NA,"3 Teck Whye Crescent",NA,NA,"4E379862737D1B20",2014-04-17,NA,18960.1468,40593.0802
"73",73,39939.182,17793.0756,689905,NA,"Chua Chu Kang Primary School","http://www.icanbook.com.sg/icbnew/Facility/Public/UI/BasicSearch.aspx?CLR=Y","Opening Hours (Indoor Sports Hall): 
NA 
Opening Hours (Field): 
Sat: 3.00 pm to 7.00 pm, Sun: 9.00 am to 7.00 pm 
Facilities: 
Free To Play Field 
Sports 
Free Play",NA,"20 Choa Chu Kang Ave 2",NA,NA,"F18C6EBCBF991313",2014-04-17,NA,17793.0756,39939.182
"74",74,32049.3237,20409.9732,127443,NA,"Clementi Woods Secondary School","http://www.icanbook.com.sg/icbnew/Facility/Public/UI/BasicSearch.aspx?CLR=Y","Opening Hours (Indoor Sports Hall): 
NA 
Opening Hours (Field): 
Sat: 3.00 pm to 7.00 pm, Sun: 9.00 am to 7.00 pm 
Facilities: 
Chargeable Field 
Sports 
Football",NA,"170 West Coast Road",NA,NA,"15E56EDBFD56658F",2014-04-17,NA,20409.9731,32049.3236
"75",75,42463.466,36247.6588,828869,NA,"Edgefield Primary School","http://www.icanbook.com.sg/icbnew/Facility/Public/UI/BasicSearch.aspx?CLR=Y","Opening Hours (Indoor Sports Hall): 
NA 
Opening Hours (Field): 
Sat: 3.00 pm to 7.00 pm, Sun: 9.00 am to 7.00 pm 
Facilities: 
Free To Play Field 
Sports 
Free Play",NA,"41 Edgefield Plains",NA,NA,"C0B48C037F1816DE",2014-04-17,NA,36247.6588,42463.466
"76",76,39612.437,40443.0314,518866,NA,"Elias Park Primary School","http://www.icanbook.com.sg/icbnew/Facility/Public/UI/BasicSearch.aspx?CLR=Y","Opening Hours (Indoor Sports Hall): 
NA 
Opening Hours (Field): 
Sat: 3.00 pm to 7.00 pm, Sun: 9.00 am to 7.00 pm 
Facilities: 
Free To Play Field 
Sports 
Free Play",NA,"11 Pasir Ris Street 52",NA,NA,"601AF006CE8FC79E",2014-04-17,NA,40443.0313,39612.437
"77",77,37162.4898,15581.0663,649371,NA,"Hua Yi Secondary School","http://www.icanbook.com.sg/icbnew/Facility/Public/UI/BasicSearch.aspx?CLR=Y","Opening Hours (Indoor Sports Hall): 
Fri: 7.00 pm to 9.00pm, Sat: 3.00 pm to 9.00 pm, Sun: 9.00 am to 9.00 pm 
Opening Hours (Field): 
Sat: 3.00 pm to 7.00 pm, Sun: 9.00 am to 7.00 pm 
Facilities: 
Chargeable Field, Indoor Sports Hall 
Sports 
Football,",NA,"60 Jurong West Street 42",NA,NA,"D96623D3CEFF851C",2014-04-17,NA,15581.0663,37162.4898
"78",78,45633.4724,23246.8971,737888,NA,"Innova Primary School","http://www.icanbook.com.sg/icbnew/Facility/Public/UI/BasicSearch.aspx?CLR=Y","Opening Hours (Indoor Sports Hall): 
Sat: 3.00 pm to 9.00 pm, Sun: 9.00 am to 9.00 pm 
Opening Hours (Field): 
NA 
Facilities: 
Indoor Sports Hall 
Sports 
Badminton",NA,"80 Woodlands Drive 17",NA,NA,"01477FB3B20DAFBB",2014-04-17,NA,23246.897,45633.4724
"79",79,36663.8763,39794.4452,528906,NA,"Junyuan Primary School","http://www.icanbook.com.sg/icbnew/Facility/Public/UI/BasicSearch.aspx?CLR=Y","Opening Hours (Indoor Sports Hall): 
Mon - Fri: 7.00 pm to 10.00pm, Sat: 3.00 pm to 9.00 pm, Sun: 9.00 am to 9.00 pm 
Opening Hours (Field): 
NA 
Facilities: 
Indoor Sports Hall 
Sports 
Badminton",NA,"2 Tampines Street 91",NA,NA,"D0C7F12C1AF9A755",2014-04-17,NA,39794.4452,36663.8762
"80",80,34696.9876,15829.1975,618652,NA,"Jurong Secondary School","http://www.icanbook.com.sg/icbnew/Facility/Public/UI/BasicSearch.aspx?CLR=Y","Opening Hours (Indoor Sports Hall): 
Sat: 3.00 pm to 9.00 pm, Sun: 9.00 am to 9.00 pm 
Opening Hours (Field): 
NA 
Facilities: 
Indoor Sports Hall 
Sports 
Badminton",NA,"31 Yuan Ching Road",NA,NA,"032654F25950DB26",2014-04-17,NA,15829.1974,34696.9876
"81",81,35271.7687,13396.5338,648348,NA,"Jurong West Secondary School","http://www.icanbook.com.sg/icbnew/Facility/Public/UI/BasicSearch.aspx?CLR=Y","Opening Hours (Indoor Sports Hall): 
Sat: 3.00 pm to 9.00 pm, Sun: 9.00 am to 9.00 pm 
Opening Hours (Field): 
Sat: 3.00 pm to 7.00 pm, Sun: 9.00 am to 7.00 pm 
Facilities: 
Chargeable Field, Indoor Sports Hall 
Sports 
Football, Badminton",NA,"61 Jurong West Street 65",NA,NA,"C4D85C231BFE9556",2014-04-17,NA,13396.5338,35271.7686
"82",82,39626.3673,41513.9724,519421,NA,"Hai Sing Catholic School","http://www.icanbook.com.sg/icbnew/Facility/Public/UI/BasicSearch.aspx?CLR=Y","Opening Hours (Indoor Sports Hall): 
NA 
Opening Hours (Field): 
Sat: 3.00 pm to 7.00 pm, Sun: 9.00 am to 7.00 pm 
Facilities: 
Chargeable Field 
Sports 
Football",NA,"9 Pasir Ris Drive 6",NA,NA,"F72A283E12458F7C",2014-04-17,NA,41513.9724,39626.3673
"83",83,41932.5036,33839.2885,544964,NA,"Sengkang Sports and Recreation Centre","http://www.icanbook.com.sg/","Opening Hours (Tennis / Squash courts) 
NA 
Opening Hours (Futsal Field) 
7.00 am - 10.00 pm 
Opening Hours (Stadium) 
NA 
Opening Hours (Sports Hall) 
7.00am - 10.00pm 
Facilities: 
Sengkang Hockey Field, Sengkang ClubFITT Gym, Sengkang Sports Hall, Sen",NA,"57 Anchorvale Road NA S(544964)",NA,NA,"1949997B54987FF3",2014-04-17,NA,33839.2884,41932.5035
"84",84,34718.5855,30075.2684,319389,NA,"Toa Payoh Sports and Recreation Centre","http://www.icanbook.com.sg/","Opening Hours (Tennis / Squash courts) 
NA 
Opening Hours (Futsal Field) 
NA 
Opening Hours (Stadium) 
7.00am - 10.00pm (Free admission for jogging from 4.30 am - 8.30 pm except when stadium is exclusively booked.) 
Opening Hours (Sports Hall) 
7.00am -",NA,"297A Toa Payoh Lorong   6 S(319389)",NA,NA,"1FC38648790CEAB8",2014-04-17,NA,30075.2684,34718.5855
"85",85,43741.3357,27766.3707,769130,NA,"Yishun Sports and Recreation Centre","http://www.icanbook.com.sg/","Opening Hours (Tennis / Squash courts) 
NA 
Opening Hours (Futsal Field) 
NA 
Opening Hours (Stadium) 
7.00am - 10.00pm (Free admission for jogging from 4.30 am - 8.30 pm except when stadium is exclusively booked.) 
Opening Hours (Sports Hall) 
7.00am -",NA,"101 Yishun Avenue 1 S(769130)",NA,NA,"EC26BC00AE1452E8",2014-04-17,NA,27766.3706,43741.3356
"86",86,37940.0628,31023.4763,559020,NA,"Burghley Squash and Tennis Centre","http://www.icanbook.com.sg/","Opening Hours (Tennis / Squash courts) 
7.00am - 10.00pm 
Opening Hours (Futsal Field)NA 
Opening Hours (Stadium) 
NA 
Facilities: 
Burghley Squash and Tennis Centre",NA,"43 Burghley Drive NA S(559020)",NA,NA,"BF66DAF296C966DE",2014-04-17,NA,31023.4763,37940.0627
"87",87,32667.9159,29800.8952,218254,NA,"Farrer Park Tennis Centre","http://www.icanbook.com.sg/","Opening Hours (Tennis / Squash courts) 
7.00am - 10.00pm 
Opening Hours (Futsal Field)7.00am - 7.00pm 
Opening Hours (Stadium) 
NA 
Facilities: 
Farrer Park Tennis Centre, Farrer Park Field",NA,"3 Rutland Road NA S(218254)",NA,NA,"5B5DEE60C54E38AD",2014-04-17,NA,29800.8952,32667.9158
"88",88,31958.5987,33151.2057,397724,NA,"Kallang Squash , Tennis & Netball Centre","http://www.icanbook.com.sg/","Opening Hours (Tennis / Squash courts) 
7.00am - 10.00pm 
Opening Hours (Futsal Field)NA 
Opening Hours (Stadium) 
7.00am - 7.30pm 
Facilities: 
Kallang Practice Track, Kallang Squash , Tennis & Netball Centre",NA,"52 Stadium Road NA S(397724)",NA,NA,"DFCD8CDE4AB4F4FD",2014-04-17,NA,33151.2056,31958.5987
"89",89,32617.1643,32957.2653,399005,NA,"Geylang Field","http://www.ssc.gov.sg/publish/Corporate/en/participation/hotspot/sports_facility/fields.html","Opening Hours (Futsal Field) 
7.00am - 7.30pm",NA,"30 Lorong 12 Geylang S(399005)",NA,NA,"B3E8F23CD01FFC1F",2014-04-17,NA,32957.2653,32617.1643
"90",90,32452.7437,20117.2833,127156,NA,"Clementi Stadium","http://www.ssc.gov.sg/publish/Corporate/en/participation/hotspot/sports_facility/stadiums.html","Opening Hours (Stadium) 
7.00am - 10.00pm (Free admission for jogging from 4.30 am - 8.30 pm except when stadium is exclusively booked.)Opening Hours (Pool) 
Facilities:Clementi Stadium",NA,"10 West Coast Walk  NA S(127156)",NA,NA,"0F7F6C6EB318540D",2014-04-17,NA,20117.2833,32452.7436
"91",91,38411.0587,18165.9957,659204,NA,"Dunearn Secondary School","http://www.icanbook.com.sg/icbnew/Facility/Public/UI/BasicSearch.aspx?CLR=Y","Opening Hours (Indoor Sports Hall): 
NA 
Opening Hours (Field): 
Sat: 3.00 pm to 7.00 pm, Sun: 9.00 am to 7.00 pm 
Facilities: 
Chargeable Field 
Sports 
Football",NA,"21 Bukit Batok West Avenue 2",NA,NA,"B1BCE055054BACA3",2014-04-17,NA,18165.9956,38411.0587
"92",92,34637.2131,37640.2439,469031,NA,"East Coast Primary School","http://www.icanbook.com.sg/icbnew/Facility/Public/UI/BasicSearch.aspx?CLR=Y","Opening Hours (Indoor Sports Hall): 
NA 
Opening Hours (Field): 
Sat: 3.00 pm to 7.00 pm, Sun: 9.00 am to 7.00 pm 
Facilities: 
Free To Play Field 
Sports 
Free Play",NA,"8 Chai Chee Lane",NA,NA,"176E25107871620A",2014-04-17,NA,37640.2439,34637.213
"93",93,36558.469,39833.3827,528907,NA,"East View Primary School","http://www.icanbook.com.sg/icbnew/Facility/Public/UI/BasicSearch.aspx?CLR=Y","Opening Hours (Indoor Sports Hall): 
NA 
Opening Hours (Field): 
Sat: 3.00 pm to 7.00 pm, Sun: 9.00 am to 7.00 pm 
Facilities: 
Free To Play Field 
Sports 
Free Play",NA,"4 Tampines Street 91",NA,NA,"574233E68D1737B9",2014-04-17,NA,39833.3827,36558.469
"94",94,37815.5112,40939.3656,529177,NA,"East View Secondary School","http://www.icanbook.com.sg/icbnew/Facility/Public/UI/BasicSearch.aspx?CLR=Y","Opening Hours (Indoor Sports Hall): 
Mon - Fri: 7.00 pm to 10.00pm, Sat: 3.00 pm to 9.00 pm, Sun: 9.00 am to 9.00 pm 
Opening Hours (Field): 
Sat: 3.00 pm to 7.00 pm, Sun: 9.00 am to 7.00 pm 
Facilities: 
Chargeable Field, Indoor Sports Hall 
Sports 
Foo",NA,"3 Tampines Street 42",NA,NA,"2AAE41F5F985A2E4",2014-04-17,NA,40939.3656,37815.5111
"95",95,46370.3602,27594.7297,768928,NA,"Ahmad Ibrahim Secondary School","http://www.icanbook.com.sg/icbnew/Facility/Public/UI/BasicSearch.aspx?CLR=Y","Opening Hours (Indoor Sports Hall): 
NA 
Opening Hours (Field): 
Sat: 3.00 pm to 7.00 pm, Sun: 9.00 am to 7.00 pm 
Facilities: 
Chargeable Field 
Sports 
Football, Free Play",NA,"751 Yishun Avenue 7",NA,NA,"3202B84EADF6D38C",2014-04-17,NA,27594.7297,46370.3602
"96",96,39566.6173,30005.01,569206,NA,"Anderson Secondary School","http://www.icanbook.com.sg/icbnew/Facility/Public/UI/BasicSearch.aspx?CLR=Y","Opening Hours (Indoor Sports Hall): 
Sat: 3.00 pm to 9.00 pm, Sun: 9.00 am to 9.00 pm 
Opening Hours (Field): 
Sat: 3.00 pm to 7.00 pm, Sun: 9.00 am to 7.00 pm 
Facilities: 
Chargeable Field, Indoor Sports Hall 
Sports 
Football, Badminton",NA,"10 Ang Mo Kio Street 53",NA,NA,"210433A9BB37950F",2014-04-17,NA,30005.0099,39566.6173
"97",97,38821.1291,29032.9524,569362,NA,"Ang Mo Kio Secondary School","http://www.icanbook.com.sg/icbnew/Facility/Public/UI/BasicSearch.aspx?CLR=Y","Opening Hours (Indoor Sports Hall): 
Sat: 3.00 pm to 9.00 pm, Sun: 9.00 am to 9.00 pm 
Opening Hours (Field): 
Sat: 3.00 pm to 7.00 pm, Sun: 9.00 am to 7.00 pm 
Facilities: 
Chargeable Field, Indoor Sports Hall 
Sports 
Football, Badminton",NA,"6 Ang Mo Kio Street 22",NA,NA,"68FA02399A41CD94",2014-04-17,NA,29032.9523,38821.1291
"98",98,35823.6861,33494.1563,538403,NA,"Bartley Secondary School","http://www.icanbook.com.sg/icbnew/Facility/Public/UI/BasicSearch.aspx?CLR=Y","Opening Hours (Indoor Sports Hall): 
NA 
Opening Hours (Field): 
Sat: 3.00 pm to 7.00 pm, Sun: 9.00 am to 7.00 pm 
Facilities: 
Chargeable Field 
Sports 
Football",NA,"10 Jalan Bunga Rampai",NA,NA,"CDCEB6504D07C84B",2014-04-17,NA,33494.1562,35823.6861
"99",99,34026.5429,39621.6222,469317,NA,"Bedok Green Primary School","http://www.icanbook.com.sg/icbnew/Facility/Public/UI/BasicSearch.aspx?CLR=Y","Opening Hours (Indoor Sports Hall): 
NA 
Opening Hours (Field): 
Sat: 3.00 pm to 7.00 pm, Sun: 9.00 am to 7.00 pm 
Facilities: 
Free To Play Field 
Sports 
Free Play",NA,"1 Bedok South Avenue 2",NA,NA,"E358DE6FDF97C57F",2014-04-17,NA,39621.6222,34026.5428
"100",100,35113.53,39373.1923,469722,NA,"Bedok Green Secondary School","http://www.icanbook.com.sg/icbnew/Facility/Public/UI/BasicSearch.aspx?CLR=Y","Opening Hours (Indoor Sports Hall): 
NA 
Opening Hours (Field): 
Sat: 3.00 pm to 7.00 pm, Sun: 9.00 am to 7.00 pm 
Facilities: 
Chargeable Field 
Sports 
Football",NA,"360 Bedok North Avenue 3",NA,NA,"27DEB167020FD987",2014-04-17,NA,39373.1923,35113.5299
"101",101,34026.9155,40259.3373,469293,NA,"Bedok View Secondary School","http://www.icanbook.com.sg/icbnew/Facility/Public/UI/BasicSearch.aspx?CLR=Y","Opening Hours (Indoor Sports Hall): 
Sat: 3.00 pm to 9.00 pm, Sun: 9.00 am to 9.00 pm 
Opening Hours (Field): 
Sat: 3.00 pm to 7.00 pm, Sun: 7.00 am to 7.00 pm 
Facilities: 
Chargeable Field, Indoor Sports Hall 
Sports 
Football, Badminton",NA,"6 Bedok South Avenue 3",NA,NA,"B9F4FB28CD1D4DA0",2014-04-17,NA,40259.3372,34026.9155
"102",102,47374.6154,21512.4314,739148,NA,"Si Ling Secondary School","http://www.icanbook.com.sg/icbnew/Facility/Public/UI/BasicSearch.aspx?CLR=Y","Opening Hours (Indoor Sports Hall): 
NA 
Opening Hours (Field): 
Sat: 3.00 pm to 7.00 pm, Sun: 9.00 am to 7.00 pm 
Facilities: 
Chargeable Field 
Sports 
Football",NA,"11 Marsiling Lane",NA,NA,"FA02119FDA811E91",2014-04-17,NA,21512.4314,47374.6153
"103",103,40189.9385,39827.9965,519385,NA,"Siglap Secondary School","http://www.icanbook.com.sg/icbnew/Facility/Public/UI/BasicSearch.aspx?CLR=Y","Opening Hours (Indoor Sports Hall): 
NA 
Opening Hours (Field): 
Sat: 3.00 pm to 7.00 pm, Sun: 9.00 am to 7.00 pm 
Facilities: 
Chargeable Field 
Sports 
Football",NA,"10 Pasir Ris Drive 10",NA,NA,"2C262FC6A601191B",2014-04-17,NA,39827.9965,40189.9385
"104",104,36834.1696,38758.4696,529593,NA,"Springfield Secondary School","http://www.icanbook.com.sg/icbnew/Facility/Public/UI/BasicSearch.aspx?CLR=Y","Opening Hours (Indoor Sports Hall): 
NA 
Opening Hours (Field): 
Sat: 3.00 pm to 7.00 pm, Sun: 9.00 am to 7.00 pm 
Facilities: 
Chargeable Field 
Sports 
Football",NA,"30 Tampines Avenue 8",NA,NA,"BE447865C1C3AF64",2014-04-17,NA,38758.4696,36834.1696
"105",105,36501.7329,32728.6507,556140,NA,"St Gabriel's Secondary School","http://www.icanbook.com.sg/icbnew/Facility/Public/UI/BasicSearch.aspx?CLR=Y","Opening Hours (Indoor Sports Hall): 
Fri: 7.00 pm to 9.00pm, Sat: 3.00 pm to 9.00 pm, Sun: 9.00 am to 9.00 pm 
Opening Hours (Field): 
Sat: 3.00 pm to 7.00 pm, Sun: 9.00 am to 7.00 pm 
Facilities: 
Chargeable Field, Indoor Sports Hall 
Sports 
Football,",NA,"24 Serangoon Ave 1",NA,NA,"5C912E45A4B07A10",2014-04-17,NA,32728.6507,36501.7328
"106",106,39928.4228,39820.7143,519524,NA,"Park View Primary School","http://www.icanbook.com.sg/icbnew/Facility/Public/UI/BasicSearch.aspx?CLR=Y","Opening Hours (Indoor Sports Hall): 
NA 
Opening Hours (Field): 
Sat: 3.00 pm to 7.00 pm, Sun: 9.00 am to 7.00 pm 
Facilities: 
Free To Play Field 
Sports 
Free Play",NA,"60, Pasir Ris Drive 1",NA,NA,"C21AC168270297D8",2014-04-17,NA,39820.7143,39928.4228
"107",107,39372.7018,42027.1676,518934,NA,"Pasir Ris Crest Secondary School","http://www.icanbook.com.sg/icbnew/Facility/Public/UI/BasicSearch.aspx?CLR=Y","Opening Hours (Indoor Sports Hall): 
Mon - Fri: 7.00 pm to 10.00pm, Sat: 3.00 pm to 9.00 pm, Sun: 9.00 am to 9.00 pm 
Opening Hours (Field): 
Sat: 3.00 pm to 7.00 pm, Sun: 9.00 am to 7.00 pm 
Facilities: 
Chargeable Field, Indoor Sports Hall 
Sports 
Foo",NA,"11 Pasir Ris Street 41",NA,NA,"59A6E9A21BF19FDB",2014-04-17,NA,42027.1676,39372.7017
"108",108,41378.0154,33035.5279,797702,NA,"Pei Hwa Secondary School","http://www.icanbook.com.sg/icbnew/Facility/Public/UI/BasicSearch.aspx?CLR=Y","Opening Hours (Indoor Sports Hall): 
NA 
Opening Hours (Field): 
Sat: 3.00 pm to 7.00 pm, Sun: 9.00 am to 7.00 pm 
Facilities: 
Chargeable Field 
Sports 
Football",NA,"21 Fernvale Link",NA,NA,"57797D5702E6E499",2014-04-17,NA,33035.5279,41378.0153
"109",109,37927.0772,32137.0009,556094,NA,"Peicai Secondary School","http://www.icanbook.com.sg/icbnew/Facility/Public/UI/BasicSearch.aspx?CLR=Y","Opening Hours (Indoor Sports Hall): 
Fri: 7.00 pm to 9.00pm, Sat: 3.00 pm to 9.00 pm, Sun: 9.00 am to 9.00 pm 
Opening Hours (Field): 
NA 
Facilities: 
Indoor Sports Hall 
Sports 
Badminton",NA,"10 Serangoon Avenue 4",NA,NA,"DFE1E52A643371D5",2014-04-17,NA,32137.0009,37927.0771
"110",110,39406.4068,32608.2995,555855,NA,"Rosyth Primary School","http://www.icanbook.com.sg/icbnew/Facility/Public/UI/BasicSearch.aspx?CLR=Y","Opening Hours (Indoor Sports Hall): 
NA 
Opening Hours (Field): 
Sat: 3.00 pm to 7.00 pm, Sun: 9.00 am to 7.00 pm 
Facilities: 
Free To Play Field 
Sports 
Free Play",NA,"21 Serangoon North Ave 4",NA,NA,"548CCF6D84B04C7E",2014-04-17,NA,32608.2994,39406.4068
"111",111,47411.1056,26631.5285,757715,NA,"Sembawang Primary School","http://www.icanbook.com.sg/icbnew/Facility/Public/UI/BasicSearch.aspx?CLR=Y","Opening Hours (Indoor Sports Hall): 
NA 
Opening Hours (Field): 
Sat: 3.00 pm to 7.00 pm, Sun: 9.00 am to 7.00 pm 
Facilities: 
Free To Play Field 
Sports 
Free Play",NA,"10 Sembawang Drive",NA,NA,"E3ED73EF8D99C45D",2014-04-17,NA,26631.5285,47411.1055
"112",112,47441.1161,26166.5553,757704,NA,"Sembawang Secondary School","http://www.icanbook.com.sg/icbnew/Facility/Public/UI/BasicSearch.aspx?CLR=Y","Opening Hours (Indoor Sports Hall): 
Sat: 3.00 pm to 9.00 pm, Sun: 9.00 am to 9.00 pm 
Opening Hours (Field): 
Sat: 3.00 pm to 7.00 pm, Sun: 9.00 am to 7.00 pm 
Facilities: 
Chargeable Field, Indoor Sports Hall 
Sports 
Football, Badminton",NA,"30 Sembawang Crescent",NA,NA,"EDE989B7DE1F065A",2014-04-17,NA,26166.5553,47441.1161
"113",113,38929.2961,28235.9463,569384,NA,"Mayflower Secondary School","http://www.icanbook.com.sg/icbnew/Facility/Public/UI/BasicSearch.aspx?CLR=Y","Opening Hours (Indoor Sports Hall): 
NA 
Opening Hours (Field): 
Sat: 3.00 pm to 7.00 pm, Sun: 9.00 am to 7.00 pm 
Facilities: 
Chargeable Field 
Sports 
Football",NA,"2 Ang Mo Kio Street 21",NA,NA,"A3952CD524BE3C49",2014-04-17,NA,28235.9463,38929.296
"114",114,44732.0829,29316.4466,768692,NA,"Northbrooks Secondary School","http://www.icanbook.com.sg/icbnew/Facility/Public/UI/BasicSearch.aspx?CLR=Y","Opening Hours (Indoor Sports Hall): 
NA 
Opening Hours (Field): 
Sat: 3.00 pm to 7.00 pm, Sun: 9.00 am to 7.00 pm 
Facilities: 
Chargeable Field 
Sports 
Football",NA,"585 Yishun Ring Road",NA,NA,"6576B9E26E7D3684",2014-04-17,NA,29316.4466,44732.0829
"115",115,37414.9815,40831.148,529400,NA,"Pasir Ris Secondary School","http://www.icanbook.com.sg/icbnew/Facility/Public/UI/BasicSearch.aspx?CLR=Y","Opening Hours (Indoor Sports Hall): 
Sat: 3.00 pm to 9.00 pm, Sun: 9.00 am to 9.00 pm 
Opening Hours (Field): 
Sat: 3.00 pm to 7.00 pm, Sun: 9.00 am to 7.00 pm 
Facilities: 
Chargeable Field, Indoor Sports Hall 
Sports 
Football, Badminton",NA,"390 Tampines Street 21",NA,NA,"FCD82F5DEFA5EB4A",2014-04-17,NA,40831.148,37414.9814
"116",116,46116.9796,27938.097,768643,NA,"Ahmad Ibrahim Primary School","http://www.icanbook.com.sg/icbnew/Facility/Public/UI/BasicSearch.aspx?CLR=Y","Opening Hours (Indoor Sports Hall): 
NA 
Opening Hours (Field): 
Sat: 3.00 pm to 7.00 pm, Sun: 9.00 am to 7.00 pm 
Facilities: 
Free To Play Field 
Sports 
Football",NA,"10 Yishun Street 11",NA,NA,"B7A1B852B2BFF8AB",2014-04-17,NA,27938.097,46116.9795
"117",117,34114.3511,41095.5959,468585,NA,"Bedok South Secondary School","http://www.icanbook.com.sg/icbnew/Facility/Public/UI/BasicSearch.aspx?CLR=Y","Opening Hours (Indoor Sports Hall): 
Sat: 3.00 pm to 9.00 pm, Sun: 9.00 am to 9.00 pm 
Opening Hours (Field): 
Sat: 3.00 pm to 7.00 pm, Sun: 9.00 am to 7.00 pm 
Facilities: 
Chargeable Field, Indoor Sports Hall 
Sports 
Football, Badminton",NA,"1 Jalan Langgar Bedok",NA,NA,"A3A33FF323B7750D",2014-04-17,NA,41095.5959,34114.351
"118",118,37590.3682,42169.5015,529231,NA,"East Spring Secondary School","http://www.icanbook.com.sg/icbnew/Facility/Public/UI/BasicSearch.aspx?CLR=Y","Opening Hours (Indoor Sports Hall): 
Sat: 3.00 pm to 9.00 pm, Sun: 9.00 am to 9.00 pm 
Opening Hours (Field): 
Sat: 3.00 pm to 7.00 pm, Sun: 9.00 am to 7.00 pm 
Facilities: 
Chargeable Field, Indoor Sports Hall 
Sports 
Football",NA,"30 Tampines Street 34",NA,NA,"31419E880E529740",2014-04-17,NA,42169.5015,37590.3682
"119",119,41365.6853,33992.3622,544969,NA,"Anchor Green Primary School","http://www.icanbook.com.sg/icbnew/Facility/Public/UI/BasicSearch.aspx?CLR=Y","Opening Hours (Indoor Sports Hall): 
Fri: 7.00 pm to 9.00pm, Sat: 3.00 pm to 9.00 pm, Sun: 9.00 am to 9.00 pm 
Opening Hours (Field): 
Sat: 3.00 pm to 7.00 pm, Sun: 9.00 am to 7.00 pm 
Facilities: 
Free To Play Field, Indoor Sports Hall 
Sports 
Free Pla",NA,"31 Anchorvale Drive",NA,NA,"2E8C9EC4BE1548EB",2014-04-17,NA,33992.3622,41365.6853
"120",120,35993.9015,30081.0985,318990,NA,"Beatty Secondary School","http://www.icanbook.com.sg/icbnew/Facility/Public/UI/BasicSearch.aspx?CLR=Y","Opening Hours (Indoor Sports Hall): 
Sat: 3.00 pm to 9.00 pm, Sun: 9.00 am to 9.00 pm 
Opening Hours (Field): 
Sat: 3.00 pm to 7.00 pm, Sun: 9.00 am to 7.00 pm 
Facilities: 
Chargeable Field, Indoor Sports Hall 
Sports 
Football, Badminton",NA,"1 Toa Payoh North",NA,NA,"206CA85D333CE6F4",2014-04-17,NA,30081.0985,35993.9014
"121",121,35246.1009,36650.9841,419612,NA,"Bedok North Secondary School","http://www.icanbook.com.sg/icbnew/Facility/Public/UI/BasicSearch.aspx?CLR=Y","Opening Hours (Indoor Sports Hall): 
Sat: 3.00 pm to 9.00 pm, Sun: 9.00 am to 9.00 pm 
Opening Hours (Field): 
Sat: 3.00 pm to 7.00 pm, Sun: 9.00 am to 7.00 pm 
Facilities: 
Chargeable Field, Indoor Sports Hall 
Sports 
Football, Badminton",NA,"20 Jalan Damai",NA,NA,"927F86E33674A6BB",2014-04-17,NA,36650.9841,35246.1009
"122",122,40382.5943,18397.246,689762,NA,"South View Primary School","http://www.icanbook.com.sg/icbnew/Facility/Public/UI/BasicSearch.aspx?CLR=Y","Opening Hours (Indoor Sports Hall): 
NA 
Opening Hours (Field): 
Sat: 3.00 pm to 7.00 pm, Sun: 9.00 am to 7.00 pm 
Facilities: 
Free To Play Field 
Sports 
Free Play",NA,"6 Choa Chu Kang Central",NA,NA,"774E1475C2D267C7",2014-04-17,NA,18397.246,40382.5943
"123",123,32477.4258,19671.3339,127391,NA,"Tanglin Secondary School","http://www.icanbook.com.sg/icbnew/Facility/Public/UI/BasicSearch.aspx?CLR=Y","Opening Hours (Indoor Sports Hall): 
NA 
Opening Hours (Field): 
Sat: 3.00 pm to 7.00 pm, Sun: 9.00 am to 7.00 pm 
Facilities: 
Chargeable Field 
Sports 
Football",NA,"301 West Coast Road",NA,NA,"2EA9619A50F292F0",2014-04-17,NA,19671.3339,32477.4257
"124",124,38793.6121,40904.4082,518901,NA,"Coral Secondary School","http://www.icanbook.com.sg/icbnew/Facility/Public/UI/BasicSearch.aspx?CLR=Y","Opening Hours (Indoor Sports Hall): 
Fri: 7.00 pm to 9.00pm, Sat: 3.00 pm to 9.00 pm, Sun: 9.00 am to 9.00 pm 
Opening Hours (Field): 
Sat: 3.00 pm to 7.00 pm, Sun: 9.00 am to 7.00 pm 
Facilities: 
Chargeable Field, Indoor Sports Hall 
Sports 
Football,",NA,"31 Pasir Ris Street 51",NA,NA,"826E9D462F0DE22B",2014-04-17,NA,40904.4082,38793.612
"125",125,35524.6962,38360.8756,479229,NA,"Damai Secondary School","http://www.icanbook.com.sg/icbnew/Facility/Public/UI/BasicSearch.aspx?CLR=Y","Opening Hours (Indoor Sports Hall): 
NA 
Opening Hours (Field): 
Sat: 3.00 pm to 7.00 pm, Sun: 9.00 am to 7.00 pm 
Facilities: 
Chargeable Field 
Sports 
Football",NA,"4800 Bedok Reservoir Road",NA,NA,"DB2F4AB7605F78A8",2014-04-17,NA,38360.8755,35524.6962
"126",126,35635.9093,12508.7555,648965,NA,"Jurong West Sports and Recreation Centre","http://www.icanbook.com.sg/","Opening Hours (Tennis / Squash courts) 
7.00am - 10.00pm 
Opening Hours (Futsal Field) 
NA 
Opening Hours (Stadium) 
7.00am - 10.00pm (Free admission for jogging from 4.30 am - 9.30 pm except when stadium is exclusively booked.) 
Opening Hours (Sports Ha",NA,"20 Jurong West Street 93 S(648965)",NA,NA,"A52846A681719B6B",2014-04-17,NA,12508.7555,35635.9092
"127",127,29778.88,25788.0937,159050,NA,"Bukit Merah Secondary School","http://www.icanbook.com.sg/icbnew/Facility/Public/UI/BasicSearch.aspx?CLR=Y","Opening Hours (Indoor Sports Hall): 
NA 
Opening Hours (Field): 
Sat: 3.00 pm to 7.00 pm, Sun: 9.00 am to 7.00 pm 
Facilities: 
Chargeable Field 
Sports 
Football",NA,"10 Lengkok Bahru",NA,NA,"88E768D5B0681574",2014-04-17,NA,25788.0937,29778.88
"128",128,35711.2774,41301.5212,529894,NA,"Changkat Changi Secondary School","http://www.icanbook.com.sg/icbnew/Facility/Public/UI/BasicSearch.aspx?CLR=Y","Opening Hours (Indoor Sports Hall): 
NA 
Opening Hours (Field): 
Sat: 3.00 pm to 7.00 pm, Sun: 9.00 am to 7.00 pm 
Facilities: 
Chargeable Field 
Sports 
Football",NA,"23 Simei Street 3",NA,NA,"F861B1353DD5C8D7",2014-04-17,NA,41301.5212,35711.2774
"129",129,33038.523,20190.2983,129903,NA,"Clementi Primary School","http://www.icanbook.com.sg/icbnew/Facility/Public/UI/BasicSearch.aspx?CLR=Y","Opening Hours (Indoor Sports Hall): 
Sat: 3.00 pm to 9.00 pm, Sun: 9.00 am to 9.00 pm 
Opening Hours (Field): 
NA 
Facilities: 
Indoor Sports Hall 
Sports 
Badminton",NA,"8 Clementi Ave 3",NA,NA,"C3E678CDC5AB6535",2014-04-17,NA,20190.2982,33038.523
"130",130,48405.7004,26232.5508,757521,NA,"Endeavour Primary School","http://www.icanbook.com.sg/icbnew/Facility/Public/UI/BasicSearch.aspx?CLR=Y","Opening Hours (Indoor Sports Hall): 
Fri: 7.00 pm to 9.00pm, Sat: 3.00 pm to 9.00 pm, Sun: 9.00 am to 9.00 pm 
Opening Hours (Field): 
Sat: 3.00 pm to 7.00 pm, Sun: 9.00 am to 7.00 pm 
Facilities: 
Free To Play Field, Indoor Sports Hall 
Sports 
Free Pla",NA,"10 Admiralty Link",NA,NA,"76CCB8E4E3D97394",2014-04-17,NA,26232.5508,48405.7004
"131",131,37267.7625,39157.5625,528933,NA,"Junyuan Secondary School","http://www.icanbook.com.sg/icbnew/Facility/Public/UI/BasicSearch.aspx?CLR=Y","Opening Hours (Indoor Sports Hall): 
NA 
Opening Hours (Field): 
Sat: 3.00 pm to 7.00 pm, Sun: 9.00 am to 7.00 pm 
Facilities: 
Chargeable Field 
Sports 
Football",NA,"11 Tampines Street 84",NA,NA,"39E0A89058254985",2014-04-17,NA,39157.5625,37267.7624
"132",132,36355.9407,19386.7439,659762,NA,"Keming Primary School","http://www.icanbook.com.sg/icbnew/Facility/Public/UI/BasicSearch.aspx?CLR=Y","Opening Hours (Indoor Sports Hall): 
NA 
Opening Hours (Field): 
Sat: 3.00 pm to 7.00 pm, Sun: 9.00 am to 7.00 pm 
Facilities: 
Free To Play Field 
Sports 
Free Play",NA,"90 Bukit Batok East Ave 6",NA,NA,"64C55C6476E6CD22",2014-04-17,NA,19386.7439,36355.9407
"133",133,34296.7054,39646.506,469643,NA,"Bedok Sports and Recreation Centre","http://www.icanbook.com.sg/","Opening Hours (Tennis / Squash courts) 
NA 
Opening Hours (Futsal Field) 
NA 
Opening Hours (Stadium) 
7.00am - 10.00pm (Free admission for jogging from 4.30 am - 8.30 pm except when stadium is exclusively booked.) 
Opening Hours (Sports Hall) 
7.00am -",NA,"3 Bedok North Street 2 S(469643)",NA,NA,"D504E22EF6A16EFD",2014-04-17,NA,39646.506,34296.7053
"134",134,40602.6949,29396.4358,569780,NA,"Yio Chu Kang Sports and Recreation Centre","http://www.icanbook.com.sg/","Opening Hours (Tennis / Squash courts) 
7.00am - 10.00pm 
Opening Hours (Futsal Field) 
NA 
Opening Hours (Stadium) 
7.00am - 8.30pm. (Closed every Thursdays. Free admission for jogging from 4.30 am - 8.30 pm except when stadium is exclusively booked.) 
",NA,"214 Ang Mo Kio Avenue 9 S(569780)",NA,NA,"D293EDBF59A6FBBF",2014-04-17,NA,29396.4358,40602.6949
"135",135,48172.9915,26776.0994,757702,NA,"Wellington Primary School","http://www.icanbook.com.sg/icbnew/Facility/Public/UI/BasicSearch.aspx?CLR=Y","Opening Hours (Indoor Sports Hall): 
NA 
Opening Hours (Field): 
Sat: 3.00 pm to 7.00 pm, Sun: 9.00 am to 7.00 pm 
Facilities: 
Free To Play Field 
Sports 
Free Play",NA,"10 Wellington Circle",NA,NA,"9A833B505D999BF0",2014-04-17,NA,26776.0993,48172.9914
"136",136,38617.9145,42203.6701,519075,NA,"White Sands Primary School","http://www.icanbook.com.sg/icbnew/Facility/Public/UI/BasicSearch.aspx?CLR=Y","Opening Hours (Indoor Sports Hall): 
NA 
Opening Hours (Field): 
Sat: 3.00 pm to 7.00 pm, Sun: 9.00 am to 7.00 pm 
Facilities: 
Free To Play Field 
Sports 
Free Play",NA,"2 Pasir Ris Street 11",NA,NA,"05359B369F124483",2014-04-17,NA,42203.67,38617.9145
"137",137,46763.1808,21454.2608,739111,NA,"Woodlands Secondary School","http://www.icanbook.com.sg/icbnew/Facility/Public/UI/BasicSearch.aspx?CLR=Y","Opening Hours (Indoor Sports Hall): 
Fri: 7.00 pm to 9.00pm, Sat: 3.00 pm to 9.00 pm, Sun: 9.00 am to 9.00 pm 
Opening Hours (Field): 
Sat: 3.00 pm to 7.00 pm, Sun: 9.00 am to 7.00 pm 
Facilities: 
Chargeable Field, Indoor Sports Hall 
Sports 
Football,",NA,"11 Marsiling Road",NA,NA,"E30C0AFC8A3147BF",2014-04-17,NA,21454.2608,46763.1808
"138",138,37089.5756,41114.8518,529393,NA,"Yumin Primary School","http://www.icanbook.com.sg/icbnew/Facility/Public/UI/BasicSearch.aspx?CLR=Y","Opening Hours (Indoor Sports Hall): 
NA 
Opening Hours (Field): 
Sat: 3.00 pm to 7.00 pm, Sun: 9.00 am to 7.00 pm 
Facilities: 
Free To Play Field 
Sports 
Free Play",NA,"3 Tampines Street 21",NA,NA,"FA4F2CFC06141476",2014-04-17,NA,41114.8518,37089.5756
"139",139,40169.1169,20877.0395,679002,NA,"Zhenghua Primary School","http://www.icanbook.com.sg/icbnew/Facility/Public/UI/BasicSearch.aspx?CLR=Y","Opening Hours (Indoor Sports Hall): 
NA 
Opening Hours (Field): 
Sat: 3.00 pm to 7.00 pm, Sun: 9.00 am to 7.00 pm 
Facilities: 
Free To Play Field 
Sports 
Free Play",NA,"9 Fajar Road",NA,NA,"937A640F9323BD0C",2014-04-17,NA,20877.0395,40169.1169
"140",140,37980.5808,18981.9583,659088,NA,"Bukit Gombak Sports and Recreation Centre","http://www.icanbook.com.sg/","Opening Hours (Tennis / Squash courts) 
NA 
Opening Hours (Futsal Field) 
NA 
Opening Hours (Stadium) 
Sundays: 7.00 am - 10.00 pm, Mondays - Saturdays: 7.00 am - 8.00 am, 12.00 pm - 2.00 pm & 7.30 pm - 8.30 pm (Free admission for jogging from 4.30 am -",NA,"810 Bukit Batok West Avenue 5 S(659088)",NA,NA,"4A795A7F08887D50",2014-04-17,NA,18981.9583,37980.5808
"141",141,35674.988,11745.5674,649038,NA,"Juying Secondary School","http://www.icanbook.com.sg/icbnew/Facility/Public/UI/BasicSearch.aspx?CLR=Y","Opening Hours (Indoor Sports Hall): 
NA 
Opening Hours (Field): 
Sat: 3.00 pm to 7.00 pm, Sun: 9.00 am to 7.00 pm 
Facilities: 
Chargeable Field 
Sports 
Football",NA,"33 Jurong West Street 91",NA,NA,"3D2BD53A524D0EF1",2014-04-17,NA,11745.5674,35674.9879
"142",142,46988.4333,23599.0225,738489,NA,"Evergreen Secondary School","http://www.icanbook.com.sg/icbnew/Facility/Public/UI/BasicSearch.aspx?CLR=Y","Opening Hours (Indoor Sports Hall): 
NA 
Opening Hours (Field): 
Sat: 3.00 pm to 7.00 pm, Sun: 9.00 am to 7.00 pm 
Facilities: 
Chargeable Field 
Sports 
Football",NA,"11 Woodlands Street 83",NA,NA,"173CEAA459B7E3F5",2014-04-17,NA,23599.0225,46988.4332
"143",143,40947.5032,35237.8328,545090,NA,"Sengkang Secondary School","http://www.icanbook.com.sg/icbnew/Facility/Public/UI/BasicSearch.aspx?CLR=Y","Opening Hours (Indoor Sports Hall): 
NA 
Opening Hours (Field): 
Sat: 3.00 pm to 7.00 pm, Sun: 9.00 am to 7.00 pm 
Facilities: 
Chargeable Field 
Sports 
Football",NA,"10 Compassvale Lane",NA,NA,"A9BFA8F288C9C5EF",2014-04-17,NA,35237.8328,40947.5032
"144",144,39351.8599,33501.3556,538789,NA,"Xin Min Secondary School","http://www.icanbook.com.sg/icbnew/Facility/Public/UI/BasicSearch.aspx?CLR=Y","Opening Hours (Indoor Sports Hall): 
NA 
Opening Hours (Field): 
Sat: 3.00 pm to 7.00 pm, Sun: 9.00 am to 7.00 pm 
Facilities: 
Chargeable Field 
Sports 
Football",NA,"11 Hougang Avenue 8",NA,NA,"2B596EDF9C52EE9B",2014-04-17,NA,33501.3556,39351.8598
"145",145,36005.3904,15459.0619,618654,NA,"Yuan Ching Secondary School","http://www.icanbook.com.sg/icbnew/Facility/Public/UI/BasicSearch.aspx?CLR=Y","Opening Hours (Indoor Sports Hall): 
Fri: 7.00 pm to 9.00pm, Sat: 3.00 pm to 9.00 pm, Sun: 9.00 am to 9.00 pm 
Opening Hours (Field): 
NA 
Facilities: 
Indoor Sports Hall 
Sports 
Badminton",NA,"103 Yuan Ching Road",NA,NA,"FA1B93C7C6AAA3B1",2014-04-17,NA,15459.0619,36005.3903
"146",146,30656.5375,25759.973,148800,NA,"Queenstown Secondary School","http://www.icanbook.com.sg/icbnew/Facility/Public/UI/BasicSearch.aspx?CLR=Y","Opening Hours (Indoor Sports Hall): 
Sat: 3.00 pm to 9.00 pm, Sun: 9.00 am to 9.00 pm 
Opening Hours (Field): 
Sat: 3.00 pm to 7.00 pm, Sun: 9.00 am to 7.00 pm 
Facilities: 
Chargeable Field, Indoor Sports Hall 
Sports 
Football, Badminton",NA,"1 Strathmore Road",NA,NA,"6708CB912B2BD615",2014-04-17,NA,25759.973,30656.5374
"147",147,34704.7466,38975.9556,469680,NA,"Fengshan Primary School","http://www.icanbook.com.sg/icbnew/Facility/Public/UI/BasicSearch.aspx?CLR=Y","Opening Hours (Indoor Sports Hall): 
NA 
Opening Hours (Field): 
Sat: 3.00 pm to 7.00 pm, Sun: 9.00 am to 7.00 pm 
Facilities: 
Free To Play Field 
Sports 
Free Play",NA,"307 Bedok North Road",NA,NA,"24F2F26D95787920",2014-04-17,NA,38975.9556,34704.7466
"148",148,29792.8191,26014.2615,158901,NA,"Gan Eng Seng Primary School","http://www.icanbook.com.sg/icbnew/Facility/Public/UI/BasicSearch.aspx?CLR=Y","Opening Hours (Indoor Sports Hall): 
NA 
Opening Hours (Field): 
Sat: 3.00 pm to 7.00 pm, Sun: 9.00 am to 7.00 pm 
Facilities: 
Free To Play Field 
Sports 
Free Play",NA,"100 Redhill Close",NA,NA,"34438B3930725CCA",2014-04-17,NA,26014.2615,29792.8191
"149",149,29715.0111,26473.7231,159544,NA,"Henderson Secondary School","http://www.icanbook.com.sg/icbnew/Facility/Public/UI/BasicSearch.aspx?CLR=Y","Opening Hours (Indoor Sports Hall): 
NA 
Opening Hours (Field): 
Sat: 3.00 pm to 7.00 pm, Sun: 9.00 am to 7.00 pm 
Facilities: 
Chargeable Field 
Sports 
Football",NA,"100 Henderson Road",NA,NA,"239716B009A1821C",2014-04-17,NA,26473.7231,29715.011
"150",150,39923.182,33308.6612,534238,NA,"Hougang Primary School","http://www.icanbook.com.sg/icbnew/Facility/Public/UI/BasicSearch.aspx?CLR=Y","Opening Hours (Indoor Sports Hall): 
Sat: 3.00 pm to 9.00 pm, Sun: 9.00 am to 9.00 pm 
Opening Hours (Field): 
NA 
Facilities: 
Indoor Sports Hall 
Sports 
Badminton",NA,"1 Hougang Street 93",NA,NA,"F6665AA5D5560086",2014-04-17,NA,33308.6612,39923.182
"151",151,39302.694,30864.6991,569185,NA,"Da Qiao Primary School","http://www.icanbook.com.sg/icbnew/Facility/Public/UI/BasicSearch.aspx?CLR=Y","Opening Hours (Indoor Sports Hall): 
NA 
Opening Hours (Field): 
Sat: 3.00 pm to 7.00 pm, Sun: 9.00 am to 7.00 pm 
Facilities: 
Free To Play Field 
Sports 
Free Play",NA,"8 Ang Mo Kio Street 54",NA,NA,"77BE3F0C00D78FBA",2014-04-17,NA,30864.699,39302.694
"152",152,36080.407,14612.6012,649930,NA,"Boon Lay Garden Primary School","http://www.icanbook.com.sg/icbnew/Facility/Public/UI/BasicSearch.aspx?CLR=Y","Opening Hours (Indoor Sports Hall):  
NA  
Opening Hours (Field):  
Sat: 3.00 pm to 7.00 pm, Sun: 9.00 am to 7.00 pm  
Facilities:  
Free To Play Field  
Sports  
Free Play",NA,"20 Boon Lay Drive",NA,NA,"D7F81B98515063C2",2014-04-17,NA,14612.6012,36080.4069
"153",153,48321.8136,25902.5329,757699,NA,"Canberra Secondary School","http://www.icanbook.com.sg/icbnew/Facility/Public/UI/BasicSearch.aspx?CLR=Y","Opening Hours (Indoor Sports Hall): 
NA 
Opening Hours (Field): 
Sat: 3.00 pm to 7.00 pm, Sun: 9.00 am to 7.00 pm 
Facilities: 
Chargeable Field 
Sports 
Football",NA,"51 Sembawang Drive",NA,NA,"4DA52304A21F6AF7",2014-04-17,NA,25902.5329,48321.8136
"154",154,33091.2638,20065.221,129904,NA,"Clementi Town Secondary School","http://www.icanbook.com.sg/icbnew/Facility/Public/UI/BasicSearch.aspx?CLR=Y","Opening Hours (Indoor Sports Hall): 
Sat: 3.00 pm to 9.00 pm, Sun: 9.00 am to 9.00 pm 
Opening Hours (Field): 
Sat: 3.00 pm to 7.00 pm, Sun: 9.00 am to 7.00 pm 
Facilities: 
Chargeable Field, Indoor Sports Hall 
Sports 
Football, Badminton",NA,"10 Clementi Ave 3",NA,NA,"C202A65225755EAE",2014-04-17,NA,20065.2209,33091.2638
"155",155,39888.3734,34833.9018,538787,NA,"Punggol Primary School","http://www.icanbook.com.sg/icbnew/Facility/Public/UI/BasicSearch.aspx?CLR=Y","Opening Hours (Indoor Sports Hall): 
Sat: 3.00 pm to 9.00 pm, Sun: 9.00 am to 9.00 pm 
Opening Hours (Field): 
Sat: 3.00 pm to 7.00 pm, Sun: 9.00 am to 7.00 pm 
Facilities: 
Free To Play Field, Indoor Sports Hall 
Sports 
Free Play, Badminton",NA,"61 Hougang Avenue 8",NA,NA,"B2F9542C5994E085",2014-04-17,NA,34833.9018,39888.3734
"156",156,28604.2996,26982.9446,99840,NA,"Radin Mas Primary School","http://www.icanbook.com.sg/icbnew/Facility/Public/UI/BasicSearch.aspx?CLR=Y","Opening Hours (Indoor Sports Hall): 
NA 
Opening Hours (Field): 
Sat: 3.00 pm to 7.00 pm, Sun: 9.00 am to 7.00 pm 
Facilities: 
Free To Play Field 
Sports 
Free Play",NA,"1 Bukit Purmei Avenue",NA,NA,"C2DF94F1FCCEE5EB",2014-04-17,NA,26982.9446,28604.2995
"157",157,35344.7991,13099.2087,642656,NA,"Frontier Primay School","http://www.icanbook.com.sg/icbnew/Facility/Public/UI/BasicSearch.aspx?CLR=Y","Opening Hours (Indoor Sports Hall): 
Fri: 7.00 pm to 9.00pm, Sat: 3.00 pm to 9.00 pm, Sun: 9.00 am to 9.00 pm 
Opening Hours (Field): 
NA 
Facilities: 
Indoor Sports Hall 
Sports 
Badminton",NA,"20 Jurong West Street 61",NA,NA,"FB22B93BE39C17F4",2014-04-17,NA,13099.2087,35344.7991
"158",158,30164.4591,26933.2812,159561,NA,"Gan Eng Seng School","http://www.icanbook.com.sg/icbnew/Facility/Public/UI/BasicSearch.aspx?CLR=Y","Opening Hours (Indoor Sports Hall): 
Sat: 3.00 pm to 9.00 pm, Sun: 9.00 am to 9.00 pm 
Opening Hours (Field): 
NA 
Facilities: 
Indoor Sports Hall 
Sports 
Badminton",NA,"1 Henderson Road",NA,NA,"8B9574595F668713",2014-04-17,NA,26933.2812,30164.4591
"159",159,40444.4545,21378.7198,679938,NA,"Greenridge Secondary School","http://www.icanbook.com.sg/icbnew/Facility/Public/UI/BasicSearch.aspx?CLR=Y","Opening Hours (Indoor Sports Hall): 
Fri: 7.00 pm to 9.00pm, Sat: 3.00 pm to 9.00 pm, Sun: 9.00 am to 9.00 pm 
Opening Hours (Field): 
Sat: 3.00 pm to 7.00 pm, Sun: 9.00 am to 7.00 pm 
Facilities: 
Chargeable Field, Indoor Sports Hall 
Sports 
Badminton",NA,"32 Bukit Panjang Road",NA,NA,"39A48A66F69C006A",2014-04-17,NA,21378.7198,40444.4545
"160",160,39604.2633,41202.5389,519640,NA,"Pasir Ris Sports and Recreation Centre","http://www.icanbook.com.sg/","Opening Hours (Tennis / Squash courts) 
7.00am - 10.00pm 
Opening Hours (Futsal Field) 
7.00am - 9.00pm 
Opening Hours (Stadium) 
NA 
Opening Hours (Sports Hall) 
7.00am - 10.00pm 
Facilities: 
Pasir Ris Outdoor Soccer Court, Pasir Ris ClubFITT Gym, Pasi",NA,"120 Pasir Ris Central NA S(519640)",NA,NA,"196AC9653F2C5A01",2014-04-17,NA,41202.5389,39604.2632
"161",161,46289.0267,22100.5674,738597,NA,"Woodlands Sports and Recreation Centre","http://www.icanbook.com.sg/","Opening Hours (Tennis / Squash courts) 
NA 
Opening Hours (Futsal Field) 
NA 
Opening Hours (Stadium) 
7.00am - 9.30pm (Free admission for jogging from 4.30 am - 8.30 pm except when stadium is exclusively booked.) 
Opening Hours (Sports Hall) 
7.00am - 1",NA,"2 Woodlands Street 12 S(738597)",NA,NA,"7AE748F47FF04E99",2014-04-17,NA,22100.5674,46289.0266
"162",162,34162.3914,31160.6809,327920,NA,"St Wilfrid Sports Complex","http://www.icanbook.com.sg/","Opening Hours (Tennis / Squash courts) 
7.00am - 10.00pm 
Opening Hours (Futsal Field)7.00 am - 7.30 pm 
Opening Hours (Stadium) 
NA 
Facilities: 
St Wilfrid Field, St Wilfrid Tennis Centre",NA,"3 St Wilfred Road NA S(327920)",NA,NA,"1E1435296A88D145",2014-04-17,NA,31160.6809,34162.3914
"163",163,31035.9998,24580.9071,148948,NA,"Queenstown Sports & Recreation Centre","http://www.ssc.gov.sg/publish/Corporate/en/participation/hotspot/sports_facility.html?","Opening Hours (Stadium) 
7.00am - 9.30pm (Free admission for Qigong at 6.30am and jogging from 4.30 am - 9.30 pm except when stadium is exclusively booked.)Opening Hours (Pool)8.00am - 9.30pm 
Facilities:Queenstown Swimming Complex, Queenstown Stadium",NA,"473 Stirling Road NA S(148948)",NA,NA,"06253201B76E76D0",2014-04-17,NA,24580.9071,31035.9998
"164",164,37094.3927,16165.8167,649370,NA,"Hong Kah Secondary School","http://www.icanbook.com.sg/icbnew/Facility/Public/UI/BasicSearch.aspx?CLR=Y","Opening Hours (Indoor Sports Hall): 
Sat: 3.00 pm to 9.00 pm, Sun: 9.00 am to 9.00 pm 
Opening Hours (Field): 
NA 
Facilities: 
Indoor Sports Hall 
Sports 
Badminton",NA,"931 Jurong West Street 42",NA,NA,"7645751B2D4D0489",2014-04-17,NA,16165.8167,37094.3926
"165",165,39277.9572,30065.0416,569228,NA,"Jing Shan Primary School","http://www.icanbook.com.sg/icbnew/Facility/Public/UI/BasicSearch.aspx?CLR=Y","Opening Hours (Indoor Sports Hall): 
NA 
Opening Hours (Field): 
Sat: 3.00 pm to 7.00 pm, Sun: 9.00 am to 7.00 pm 
Facilities: 
Free To Play Field 
Sports 
Free Play",NA,"5 Ang Mo Kio Street 52",NA,NA,"6F2EFF504E78CA45",2014-04-17,NA,30065.0416,39277.9572
"166",166,34094.0815,35908.9299,419529,NA,"Eunos Primary School","http://www.icanbook.com.sg/icbnew/Facility/Public/UI/BasicSearch.aspx?CLR=Y","Opening Hours (Indoor Sports Hall): 
NA 
Opening Hours (Field): 
Sat: 3.00 pm to 7.00 pm, Sun: 9.00 am to 7.00 pm 
Facilities: 
Free To Play Field 
Sports 
Free Play",NA,"95 Jalan Eunos",NA,NA,"89AA9E03ED6CFCED",2014-04-17,NA,35908.9298,34094.0814
"167",167,39628.0344,35658.8371,534237,NA,"Serangoon Secondary School","http://www.icanbook.com.sg/icbnew/Facility/Public/UI/BasicSearch.aspx?CLR=Y","Opening Hours (Indoor Sports Hall): 
NA 
Opening Hours (Field): 
Sat: 3.00 pm to 7.00 pm, Sun: 9.00 am to 7.00 pm 
Facilities: 
Chargeable Field 
Sports 
Football",NA,"11 Upper Serangoon View",NA,NA,"28EA5D9206691199",2014-04-17,NA,35658.8371,39628.0343
"168",168,37549.8834,32572.1865,545677,NA,"Serangoon Sports and Recreation Centre","http://www.icanbook.com.sg/","Opening Hours (Stadium) 
7.00am - 10.00pm (Free admission for jogging from 4.30 am - 8.30 pm except when stadium is exclusively booked.)Opening Hours (Pool)8.00am - 9.30pm 
Facilities:Serangoon Stadium, Serangoon Swimming Complex",NA,"33 Yio Chu Kang Road  NA S(545677)",NA,NA,"251F1E80D2BCA42C",2014-04-17,NA,32572.1864,37549.8834
"169",169,34390.4871,34173.7788,379499,NA,"MacPherson Secondary School","http://www.icanbook.com.sg/icbnew/Facility/Public/UI/BasicSearch.aspx?CLR=Y","Opening Hours (Indoor Sports Hall): 
NA 
Opening Hours (Field): 
Sat: 3.00 pm to 7.00 pm, Sun: 9.00 am to 7.00 pm 
Facilities: 
Chargeable Field 
Sports 
Football",NA,"121 Circuit Road",NA,NA,"5397C4AE052CE181",2014-04-17,NA,34173.7788,34390.487
"170",170,32273.2183,20843.6584,129956,NA,"Nan Hua High School","http://www.icanbook.com.sg/icbnew/Facility/Public/UI/BasicSearch.aspx?CLR=Y","Opening Hours (Indoor Sports Hall): 
Sat: 3.00 pm to 9.00 pm, Sun: 9.00 am to 9.00 pm 
Opening Hours (Field): 
Sat: 3.00 pm to 7.00 pm, Sun: 9.00 am to 7.00 pm 
Facilities: 
Chargeable Field, Indoor Sports Hall 
Sports 
Football, Badminton",NA,"41 Clementi Ave 1",NA,NA,"1B7D121BF0D0AA87",2014-04-17,NA,20843.6584,32273.2182
"171",171,45469.0207,29682.011,768960,NA,"North View Primary School","http://www.icanbook.com.sg/icbnew/Facility/Public/UI/BasicSearch.aspx?CLR=Y","Opening Hours (Indoor Sports Hall): 
NA 
Opening Hours (Field): 
Sat: 3.00 pm to 7.00 pm, Sun: 9.00 am to 7.00 pm 
Facilities: 
Free To Play Field 
Sports 
Free Play",NA,"210 Yishun Avenue 6",NA,NA,"83FB2879B4C655E8",2014-04-17,NA,29682.0109,45469.0207
"172",172,46389.1899,28755.1907,768578,NA,"Northland Secondary School","http://www.icanbook.com.sg/icbnew/Facility/Public/UI/BasicSearch.aspx?CLR=Y","Opening Hours (Indoor Sports Hall): 
Fri: 7.00 pm to 9.00pm, Sat: 3.00 pm to 9.00 pm, Sun: 9.00 am to 9.00 pm 
Opening Hours (Field): 
NA 
Facilities: 
Indoor Sports Hall 
Sports 
Badminton",NA,"3 Yishun Street 22",NA,NA,"DF779BE5DA4ED2C4",2014-04-17,NA,28755.1907,46389.1898
"173",173,39387.3462,42407.5028,518968,NA,"Pasir Ris Primary School","http://www.icanbook.com.sg/icbnew/Facility/Public/UI/BasicSearch.aspx?CLR=Y","Opening Hours (Indoor Sports Hall): 
NA 
Opening Hours (Field): 
Sat: 3.00 pm to 7.00 pm, Sun: 9.00 am to 7.00 pm 
Facilities: 
Free To Play Field 
Sports 
Free Play",NA,"5 Pasir Ris Street 21",NA,NA,"DB3E26CEF3BD85A9",2014-04-17,NA,42407.5027,39387.3462
"174",174,46972.6447,22991.6278,738524,NA,"Riverside Secondary School","http://www.icanbook.com.sg/icbnew/Facility/Public/UI/BasicSearch.aspx?CLR=Y","Opening Hours (Indoor Sports Hall): 
Sat: 3.00 pm to 9.00 pm, Sun: 9.00 am to 9.00 pm 
Opening Hours (Field): 
Sat: 3.00 pm to 7.00 pm, Sun: 9.00 am to 7.00 pm 
Facilities: 
Chargeable Field, Indoor Sports Hall 
Sports 
Football, Badminton",NA,"3 Woodlands Street 81",NA,NA,"7F9ED8097139475D",2014-04-17,NA,22991.6277,46972.6447
"175",175,46020.4124,22711.3376,739067,NA,"Si Ling Primary School","http://www.icanbook.com.sg/icbnew/Facility/Public/UI/BasicSearch.aspx?CLR=Y","Opening Hours (Indoor Sports Hall): 
NA 
Opening Hours (Field): 
Sat: 3.00 pm to 7.00 pm, Sun: 9.00 am to 7.00 pm 
Facilities: 
Free To Play Field 
Sports 
Free Play",NA,"61 Woodlands Avenue 1",NA,NA,"C1983CC417B116F5",2014-04-17,NA,22711.3376,46020.4123
"176",176,38685.4156,27620.7054,575566,NA,"Peirce Secondary School","http://www.icanbook.com.sg/icbnew/Facility/Public/UI/BasicSearch.aspx?CLR=Y","Opening Hours (Indoor Sports Hall): 
Fri: 7.00 pm to 9.00pm, Sat: 3.00 pm to 9.00 pm, Sun: 9.00 am to 9.00 pm 
Opening Hours (Field): 
Sat: 3.00 pm to 7.00 pm, Sun: 9.00 am to 7.00 pm 
Facilities: 
Chargeable Field, Indoor Sports Hall 
Sports 
Football,",NA,"10 Sin Ming Walk",NA,NA,"704EF1957400F6F3",2014-04-17,NA,27620.7054,38685.4155
"177",177,34323.0431,37718.9281,468980,NA,"Ping Yi Secondary School","http://www.icanbook.com.sg/icbnew/Facility/Public/UI/BasicSearch.aspx?CLR=Y","Opening Hours (Indoor Sports Hall): 
Sat: 3.00 pm to 9.00 pm, Sun: 9.00 am to 9.00 pm 
Opening Hours (Field): 
Sat: 3.00 pm to 7.00 pm, Sun: 9.00 am to 7.00 pm 
Facilities: 
Chargeable Field, Indoor Sports Hall 
Sports 
Football, Badminton",NA,"61 Chai Chee Street",NA,NA,"A390F8C86FDF82C8",2014-04-17,NA,37718.9281,34323.043
"178",178,33434.069,26418.417,259366,NA,"Co-Curricular Activities Branch (CCAB) Sports Facilities","http://www.icanbook.com.sg/","Opening Hours (Tennis / Squash courts) 
6.00 pm - 10.00 pm (Weekdays), 2.00 pm - 10.00 pm (Sat), 7.00 am - 10.00 pm (Sun & public holidays) 
Opening Hours (Futsal Field) 
Open to public outside school curriculum hours 
Opening Hours (Stadium) 
NA 
Openin",NA,"21 Evans Road NA S(259366)",NA,NA,"07ED3CF079245BB8",2014-04-17,NA,26418.417,33434.069
"179",179,31425.477,24483.7642,149295,NA,"Queensway Secondary School","http://www.icanbook.com.sg/icbnew/Facility/Public/UI/BasicSearch.aspx?CLR=Y","Opening Hours (Indoor Sports Hall): 
Fri: 7.00 pm to 9.00pm, Sat: 3.00 pm to 9.00 pm, Sun: 9.00 am to 9.00 pm 
Opening Hours (Field): 
Sat: 3.00 pm to 7.00 pm, Sun: 9.00 am to 7.00 pm 
Facilities: 
Chargeable Field, Indoor Sports Hall 
Sports 
Football,",NA,"2A Margaret Drive",NA,NA,"5E1741AECF106AC8",2014-04-17,NA,24483.7642,31425.477
"180",180,41666.9426,18804.0312,689621,NA,"Regent Secondary School","http://www.icanbook.com.sg/icbnew/Facility/Public/UI/BasicSearch.aspx?CLR=Y","Opening Hours (Indoor Sports Hall): 
NA 
Opening Hours (Field): 
Sat: 3.00 pm to 7.00 pm, Sun: 9.00 am to 7.00 pm 
Facilities: 
Chargeable Field 
Sports 
Football",NA,"50 Choa Chu Kang North 5",NA,NA,"4B4D9A7B6132372F",2014-04-17,NA,18804.0312,41666.9426
"181",181,41266.4876,32548.0685,797701,NA,"Fernvale Primary School","http://www.icanbook.com.sg/icbnew/Facility/Public/UI/BasicSearch.aspx?CLR=Y","Opening Hours (Indoor Sports Hall): 
NA 
Opening Hours (Field): 
Sat: 3.00 pm to 7.00 pm, Sun: 9.00 am to 7.00 pm 
Facilities: 
Free To Play Field 
Sports 
Free Play",NA,"1 Fernvale Lane",NA,NA,"C300043996D8896C",2014-04-17,NA,32548.0685,41266.4876
"182",182,35005.5845,30849.9652,319133,NA,"First Toa Payoh Secondary School","http://www.icanbook.com.sg/icbnew/Facility/Public/UI/BasicSearch.aspx?CLR=Y","Opening Hours (Indoor Sports Hall): 
NA 
Opening Hours (Field): 
Sat: 3.00 pm to 7.00 pm, Sun: 9.00 am to 7.00 pm 
Facilities: 
Chargeable Field 
Sports 
Football",NA,"580 Toa Payoh East",NA,NA,"E08CC90572010EED",2014-04-17,NA,30849.9652,35005.5844
