"","Name","SCHOOL_NAME","HOUSE_BLOCK_NO","ROAD_NAME","POSTAL_CODE","FACILITIES","SPORTS_HALL_OPERATING_HRS","CHARGEABLE_FIELD_OPERATING_HRS","FREETOPLAY_FIELD_OPERATING_HRS","FREETOPLAY_COURT_OPERATING_HRS","OUTDOOR_COURT_OPERATING_HRS","STREET_SOCCER_OPERATING_HRS","INFORMATION_LINK","BOOKING_LINK","FACILITY_INFORMATION","INC_CRC","FMEL_UPD_D","Longitude","Latitude","Z"
"1","kml_1","BOWEN SECONDARY SCHOOL","2","LORONG NAPIRI","547529","Indoor Sports Hall/Chargeable Field","Sat: 3.00 pm to 9.00 pm; Sun: 9.00 am to 9.00 pm","Sat: 3.00 pm to 7.00 pm; Sun: 9.00 am to 7.00 pm","","","","","https://www.myactivesg.com/facilities","https://members.myactivesg.com","","25CB28DCC52AECFB","20170807162544",103.877459045221,1.37075107304667,0
"2","kml_2","BROADRICK SECONDARY SCHOOL","61","DAKOTA CRESCENT","399935","Chargeable Field","","Sat: 3.00 pm to 7.00 pm; Sun: 9.00 am to 7.00 pm","","","","","https://www.myactivesg.com/facilities","https://members.myactivesg.com","","9826D6B08947FEB9","20170807162544",103.88667542677,1.30750538584853,0
"3","kml_3","BUKIT MERAH SECONDARY SCHOOL","10","LENGKOK BAHRU","159050","Chargeable Field","","Sat: 3.00 pm to 7.00 pm; Sun: 9.00 am to 7.00 pm","","","","","https://www.myactivesg.com/facilities","https://members.myactivesg.com","","CD9BEAFA1F61CD7F","20170807162544",103.813023122518,1.28578414584726,0
"4","kml_4","BUKIT PANJANG GOVT. HIGH SCHOOL","7","CHOA CHU KANG AVE 4","689809","Indoor Sports Hall/Chargeable Field","Sat: 3.00 pm to 9.00 pm; Sun: 9.00 am to 9.00 pm","Sat: 3.00 pm to 7.00 pm; Sun: 9.00 am to 7.00 pm","","","","","https://www.myactivesg.com/facilities","https://members.myactivesg.com","","E0F9375F97D8B76E","20170807162544",103.738134425738,1.3821367197886,0
"5","kml_5","BUKIT PANJANG PRIMARY SCHOOL","109","CASHEW ROAD","679676","Indoor Sports Hall/Free-To-Play Field","Sat: 3.00 pm to 9.00 pm; Sun: 9.00 am to 9.00 pm","","Sat: 3.00 pm to 7.00 pm; Sun: 9.00 am to 7.00 pm","","","","https://www.myactivesg.com/facilities","https://members.myactivesg.com","","EE9502F59A51C91E","20170807162544",103.769317484383,1.37347218340638,0
"6","kml_6","BUKIT VIEW SECONDARY SCHOOL","16","BUKIT BATOK STREET 21","659633","Indoor Sports Hall/Chargeable Field","Sat: 3.00 pm to 9.00 pm; Sun: 9.00 am to 9.00 pm","Sat: 3.00 pm to 7.00 pm; Sun: 9.00 am to 7.00 pm","","","","","https://www.myactivesg.com/facilities","https://members.myactivesg.com","","40F9CDD6428B730A","20170807162544",103.752226596906,1.34573304803522,0
"7","kml_7","CANBERRA PRIMARY SCHOOL","21","ADMIRALTY DRIVE","757714","Indoor Sports Hall/Free-To-Play Field","Sat: 3.00 pm to 9.00 pm; Sun: 9.00 am to 9.00 pm","","Sat: 3.00 pm to 7.00 pm; Sun: 9.00 am to 7.00 pm","","","","https://www.myactivesg.com/facilities","https://members.myactivesg.com","","896092BEE7BEA920","20170807162544",103.815839484043,1.45130465742788,0
"8","kml_8","CANBERRA SECONDARY SCHOOL","51","SEMBAWANG DRIVE","757699","Chargeable Field","","Sat: 3.00 pm to 7.00 pm; Sun: 9.00 am to 7.00 pm","","","","","https://www.myactivesg.com/facilities","https://members.myactivesg.com","","A69D1002790701A0","20170807162544",103.814194901213,1.45322492265396,0
"9","kml_9","CANTONMENT PRIMARY SCHOOL","1","CANTONMENT CLOSE","88256","Indoor Sports Hall","Sat: 3.00 pm to 9.00 pm; Sun: 9.00 am to 9.00 pm","","","","","","https://www.myactivesg.com/facilities","https://members.myactivesg.com","","9402EC9CBF2A070E","20170807162544",103.839962634425,1.27547252831295,0
"10","kml_10","CASUARINA PRIMARY SCHOOL","30","PASIR RIS ST 41","518935","Free-To-Play Field","","","Sat: 3.00 pm to 7.00 pm; Sun: 9.00 am to 7.00 pm","","","","https://www.myactivesg.com/facilities","https://members.myactivesg.com","","038EA0FA538D9D08","20170807162544",103.957020289999,1.37246063782402,0
"11","kml_11","CHANGKAT CHANGI SECONDARY SCHOOL","23","SIMEI ST 3","529894","Chargeable Field","","Sat: 3.00 pm to 7.00 pm; Sun: 9.00 am to 7.00 pm","","","","","https://www.myactivesg.com/facilities","https://members.myactivesg.com","","67DA9D42ABF465F2","20170807162544",103.952725098326,1.34036113849998,0
"12","kml_12","CHIJ ST. JOSEPH'S CONVENT","62","SENGKANG EAST WAY","548595","Indoor Sports Hall","Sat: 3.00 pm to 9.00 pm; Sun: 9.00 am to 9.00 pm","","","","","","https://www.myactivesg.com/facilities","https://members.myactivesg.com","","10741FE592D4EB60","20170807162544",103.902463235733,1.39175228099558,0
"13","kml_13","CHUA CHU KANG PRIMARY SCHOOL","20","CHOA CHU KANG AVENUE 2","689905","Free-To-Play Field","","","Sat: 3.00 pm to 7.00 pm; Sun: 9.00 am to 7.00 pm","","","","https://www.myactivesg.com/facilities","https://members.myactivesg.com","","3CE1ABE51A5F3CFD","20170807162544",103.741759293802,1.37767438051609,0
"14","kml_14","CHUA CHU KANG SECONDARY SCHOOL","3","TECK WHYE CRESCENT","688845","Chargeable Field","","Sat: 3.00 pm to 7.00 pm; Sun: 9.00 am to 7.00 pm","","","","","https://www.myactivesg.com/facilities","https://members.myactivesg.com","","E025514E40D95A9F","20170807162544",103.75187829226,1.38319028377049,0
"15","kml_15","CLEMENTI PRIMARY SCHOOL","8","CLEMENTI AVE 3","129903","Indoor Sports Hall","Sat: 3.00 pm to 6.00 pm; Sun: 9.00 am to 6.00 pm","","","","","","https://www.myactivesg.com/facilities","https://members.myactivesg.com","","52524FF3A7E12B0D","20170807162544",103.762966674993,1.31505731324001,0
"16","kml_16","CLEMENTI TOWN SECONDARY SCHOOL","10","CLEMENTI AVE 3","129904","Indoor Sports Hall/Chargeable Field","Sat: 3.00 pm to 6.00 pm; Sun: 9.00 am to 6.00 pm","Sat: 3.00 pm to 7.00 pm; Sun: 9.00 am to 7.00 pm","","","","","https://www.myactivesg.com/facilities","https://members.myactivesg.com","","71C673EA0BE21417","20170807162544",103.762020603521,1.31553913497148,0
"17","kml_17","COMMONWEALTH SECONDARY SCHOOL","698","WEST COAST ROAD","608784","Indoor Sports Hall/Chargeable Field","Fri: 7.00 pm to 9.00 pm; Sat: 3.00 pm to 9.00 pm; Sun: 9.00 am to 9.00 pm","Sat: 3.00 pm to 7.00 pm; Sun: 9.00 am to 7.00 pm","","","","","https://www.myactivesg.com/facilities","https://members.myactivesg.com","","F48D57562E3DB8E1","20170807162544",103.745637395434,1.31920396463662,0
"18","kml_18","COMPASSVALE SECONDARY SCHOOL","51","COMPASSVALE CRESCENT","545083","Chargeable Field","","Sat: 3.00 pm to 7.00 pm; Sun: 9.00 am to 7.00 pm","","","","","https://www.myactivesg.com/facilities","https://members.myactivesg.com","","DD7ACE207FC5BC15","20170807162544",103.899847173403,1.39614083931231,0
"19","kml_19","CORAL PRIMARY SCHOOL","20","PASIR RIS ST 51","518902","Free-To-Play Field","","","Sat: 3.00 pm to 7.00 pm; Sun: 9.00 am to 7.00 pm","","","","https://www.myactivesg.com/facilities","https://members.myactivesg.com","","5C950C0F989763D4","20170807162544",103.950648584663,1.3684257619559,0
"20","kml_20","CORPORATION PRIMARY SCHOOL","31","JURONG WEST STREET 24","648347","Free-To-Play Field","","","Sat: 3.00 pm to 7.00 pm; Sun: 9.00 am to 7.00 pm","","","","https://www.myactivesg.com/facilities","https://members.myactivesg.com","","A46E014103405D8B","20170807162544",103.707578404975,1.3514854878054,0
"21","kml_21","CRESCENT GIRLS' SCHOOL","357","TANGLIN ROAD","247961","Indoor Sports Hall/Chargeable Field","Fri: 7.00 pm to 9.00 pm; Sat: 3.00 pm to 9.00 pm; Sun: 9.00 am to 9.00 pm","Sat: 3.00 pm to 7.00 pm; Sun: 9.00 am to 7.00 pm","","","","","https://www.myactivesg.com/facilities","https://members.myactivesg.com","","B05B32DFF629D458","20170807162544",103.817544469017,1.29331947159455,0
"22","kml_22","CREST SECONDARY SCHOOL","561","JURONG EAST STREET 24","609561","Indoor Sports Hall/Chargeable Field","Thurs - Fri: 7.00pm to 9.00pm; Sat: 3.00 pm to 9.00 pm; Sun: 9.00 am to 9.00 pm","Sat: 3.00 pm to 7.00 pm; Sun: 9.00 am to 7.00 pm","","","","","https://www.myactivesg.com/facilities","https://members.myactivesg.com","","21650852A2D6F6D5","20170807162544",103.742543059465,1.34355501585903,0
"23","kml_23","DA QIAO PRIMARY SCHOOL","8","ANG MO KIO STREET 54","569185","Free-To-Play Field","","","Sat: 3.00 pm to 7.00 pm; Sun: 9.00 am to 7.00 pm","","","","https://www.myactivesg.com/facilities","https://members.myactivesg.com","","DE98E6BD6218E259","20170807162544",103.85899363691,1.37181151907344,0
"24","kml_24","DAMAI PRIMARY SCHOOL","50","BEDOK RESERVOIR CRESCENT","479225","Free-To-Play Field","","","Sat: 3.00 pm to 7.00 pm; Sun: 9.00 am to 7.00 pm","","","","https://www.myactivesg.com/facilities","https://members.myactivesg.com","","58E9EAF094DE95D6","20170807162544",103.919874260703,1.33587776813797,0
"25","kml_25","DAMAI SECONDARY SCHOOL","4800","BEDOK RESERVOIR ROAD","479229","Chargeable Field","","Sat: 3.00 pm to 7.00 pm; Sun: 9.00 am to 7.00 pm","","","","","https://www.myactivesg.com/facilities","https://members.myactivesg.com","","897E5C9D38AC033D","20170807162544",103.926417068411,1.33754546920757,0
"26","kml_26","DEYI SECONDARY SCHOOL","1","ANG MO KIO STREET 42","569277","Chargeable Field","","Sat: 3.00 pm to 7.00 pm; Sun: 9.00 am to 7.00 pm","","","","","https://www.myactivesg.com/facilities","https://members.myactivesg.com","","5F3C66FD4B657E07","20170807162544",103.85193612765,1.36734741496345,0
"27","kml_27","DUNEARN SECONDARY SCHOOL","247","JALAN BOON LAY","619522","Chargeable Field","","Sat: 3.00 pm to 7.00 pm; Sun: 9.00 am to 7.00 pm","","","","","https://www.myactivesg.com/facilities","https://members.myactivesg.com","","89822CECE075FC7C","20170807162544",103.70980411448,1.34185170738791,0
"28","kml_28","DUNMAN HIGH SCHOOL","10","TANJONG RHU ROAD","436895","Indoor Sports Hall/Chargeable Field","Sat: 3.00 pm to 9.00 pm; Sun: 9.00 am to 9.00 pm","Sat: 3.00 pm to 7.00 pm; Sun: 9.00 am to 7.00 pm","","","","","https://www.myactivesg.com/facilities","https://members.myactivesg.com","","72A022C12B1E6313","20170807162544",103.882941567949,1.29996190681912,0
"29","kml_29","EAST COAST PRIMARY SCHOOL","8","CHAI CHEE LANE","469031","Free-To-Play Field","","","Sat: 3.00 pm to 7.00 pm; Sun: 9.00 am to 7.00 pm","","","","https://www.myactivesg.com/facilities","https://members.myactivesg.com","","80581167403ACA09","20170807162544",103.919887427056,1.32910136813466,0
"30","kml_30","EAST SPRING PRIMARY SCHOOL","31","TAMPINES ST 33","529258","Indoor Sports Hall/Free-To-Play Field","Sat: 3.00 pm to 9.00 pm; Sun: 9.00 am to 9.00 pm","","Sat: 3.00 pm to 7.00 pm; Sun: 9.00 am to 7.00 pm","","","","https://www.myactivesg.com/facilities","https://members.myactivesg.com","","98483C6D0FF6EBE7","20170807162544",103.961671811624,1.35268400153585,0
"31","kml_31","EAST SPRING SECONDARY SCHOOL","30","TAMPINES STREET 34","529231","Indoor Sports Hall/Chargeable Field","Sat: 3.00 pm to 9.00 pm; Sun: 9.00 am to 9.00 pm","Sat: 3.00 pm to 7.00 pm; Sun: 9.00 am to 7.00 pm","","","","","https://www.myactivesg.com/facilities","https://members.myactivesg.com","","BE958C0FEA205D42","20170807162544",103.960638677334,1.35622506823958,0
"32","kml_32","EAST VIEW PRIMARY SCHOOL","4","TAMPINES STREET 91","528907","Free-To-Play Field","","","Sat: 3.00 pm to 7.00 pm; Sun: 9.00 am to 7.00 pm","","","","https://www.myactivesg.com/facilities","https://members.myactivesg.com","","C687D4663E578597","20170807162544",103.939546636688,1.34696032033367,0
"33","kml_33","EAST VIEW SECONDARY SCHOOL","3","TAMPINES STREET 42","529177","Indoor Sports Hall/Chargeable Field","Mon - Fri: 7.00pm to 10.00pm; Sat: 3.00 pm to 9.00 pm; Sun: 9.00 am to 9.00 pm","Sat: 3.00 pm to 7.00 pm; Sun: 9.00 am to 7.00 pm","","","","","https://www.myactivesg.com/facilities","https://members.myactivesg.com","","DD97885D8377B8AC","20170807162544",103.949587249595,1.35826175566045,0
"34","kml_34","EDGEFIELD PRIMARY SCHOOL","41","EDGEFIELD PLAINS","828869","Free-To-Play Field","","","Sat: 3.00 pm to 7.00 pm; Sun: 9.00 am to 7.00 pm","","","","https://www.myactivesg.com/facilities","https://members.myactivesg.com","","BF9C1DE16DC1ABD1","20170807162544",103.907430523724,1.4002978299938,0
"35","kml_35","EDGEFIELD SECONDARY SCHOOL","36","PUNGGOL FIELD","828814","Indoor Sports Hall","Sat: 3.00 pm to 9.00 pm; Sun: 9.00 am to 9.00 pm","","","","","","https://www.myactivesg.com/facilities","https://members.myactivesg.com","","DAC78CD476BACA7C","20170807162544",103.90214122729,1.40017928910239,0
"36","kml_36","ELIAS PARK PRIMARY SCHOOL","11","PASIR RIS STREET 52","518866","Free-To-Play Field","","","Sat: 3.00 pm to 7.00 pm; Sun: 9.00 am to 7.00 pm","","","","https://www.myactivesg.com/facilities","https://members.myactivesg.com","","C8989BB4069B298D","20170807162544",103.945128120819,1.37451268560184,0
"37","kml_37","ENDEAVOUR PRIMARY SCHOOL","10","ADMIRALTY LINK","757521","Indoor Sports Hall/Free-To-Play Field","Fri: 7.00 pm to 9.00 pm; Sat: 3.00 pm to 9.00 pm; Sun: 9.00 am to 9.00 pm","","Sat: 3.00 pm to 7.00 pm; Sun: 9.00 am to 7.00 pm","","","","https://www.myactivesg.com/facilities","https://members.myactivesg.com","","D82DBEA6940AC548","20170807162544",103.817427325299,1.45417628684064,0
"38","kml_38","EUNOS PRIMARY SCHOOL","95","JALAN EUNOS","419529","Free-To-Play Field","","","Sat: 3.00 pm to 7.00 pm; Sun: 9.00 am to 7.00 pm","","","","https://www.myactivesg.com/facilities","https://members.myactivesg.com","","C42D7332D455C894","20170807162544",103.904374791381,1.32438836308906,0
"39","kml_39","EVERGREEN PRIMARY SCHOOL","31","WOODLANDS CIRCLE","738908","Free-To-Play Field","","","Sat: 3.00 pm to 7.00 pm; Sun: 9.00 am to 7.00 pm","","","","https://www.myactivesg.com/facilities","https://members.myactivesg.com","","DBA80548F77259B1","20170807162544",103.794545295801,1.44414835441009,0
"40","kml_40","EVERGREEN SECONDARY SCHOOL","11","WOODLANDS STREET 83","738489","Chargeable Field","","Sat: 3.00 pm to 7.00 pm; Sun: 9.00 am to 7.00 pm","","","","","https://www.myactivesg.com/facilities","https://members.myactivesg.com","","B6A6E68AA0DCBEA5","20170807162544",103.793771503818,1.44122083493602,0
"41","kml_41","INNOVA PRIMARY SCHOOL","80","WOODLANDS DRIVE 17","737888","Indoor Sports Hall","Sat: 3.00 pm to 9.00 pm; Sun: 9.00 am to 9.00 pm","","","","","","https://www.myactivesg.com/facilities","https://members.myactivesg.com","","550CF953DCAF8EA7","20170807162544",103.790557062589,1.42918457154581,0
"42","kml_42","JING SHAN PRIMARY SCHOOL","5","ANG MO KIO ST 52","569228","Free-To-Play Field","","","Sat: 3.00 pm to 7.00 pm; Sun: 9.00 am to 7.00 pm","","","","https://www.myactivesg.com/facilities","https://members.myactivesg.com","","F86A9A6120A7787B","20170807162544",103.851811080704,1.37189267283786,0
"43","kml_43","JUNYUAN PRIMARY SCHOOL","2","TAMPINES STREET 91","528906","Indoor Sports Hall","Mon - Fri: 7.00pm to 10.00pm; Sat: 3.00 pm to 9.00 pm; Sun: 9.00 am to 9.00 pm","","","","","","https://www.myactivesg.com/facilities","https://members.myactivesg.com","","595CB5DF5C1E5C43","20170807162544",103.939220541706,1.34787050352587,0
"44","kml_44","JUNYUAN SECONDARY SCHOOL","11","TAMPINES STREET 84","528933","Indoor Sports Hall/Chargeable Field","Sat: 3.00 pm to 9.00 pm; Sun: 9.00 am to 9.00 pm","Sat: 3.00 pm to 7.00 pm; Sun: 9.00 am to 7.00 pm","","","","","https://www.myactivesg.com/facilities","https://members.myactivesg.com","","29F441BA9C8F9223","20170807162544",103.933411374111,1.35334124006231,0
"45","kml_45","JURONG SECONDARY SCHOOL","31","YUAN CHING ROAD","618652","Indoor Sports Hall","Sat: 3.00 pm to 9.00 pm; Sun: 9.00 am to 9.00 pm","","","","","","https://www.myactivesg.com/facilities","https://members.myactivesg.com","","C68632C4482E8C63","20170807162544",103.723952971747,1.33002033245528,0
"46","kml_46","JURONG WEST SECONDARY SCHOOL","61","JURONG WEST STREET 65","648348","Indoor Sports Hall/Chargeable Field","Sat: 3.00 pm to 9.00 pm; Sun: 9.00 am to 9.00 pm","Sat: 3.00 pm to 7.00 pm; Sun: 9.00 am to 7.00 pm","","","","","https://www.myactivesg.com/facilities","https://members.myactivesg.com","","3C668BEEA3F59474","20170807162544",103.702098138577,1.33525634130043,0
"47","kml_47","JURONGVILLE SECONDARY SCHOOL","202","JURONG EAST AVENUE 1","609790","Indoor Sports Hall","Sat: 3.00 pm to 9.00 pm; Sun: 9.00 am to 9.00 pm","","","","","","https://www.myactivesg.com/facilities","https://members.myactivesg.com","","72AF8FE8C38ACA18","20170807162544",103.728907714634,1.35128862571453,0
"48","kml_48","JUYING SECONDARY SCHOOL","33","JURONG WEST STREET 91","649038","Indoor Sports Hall/Chargeable Field","Sat: 3.00 pm to 9.00 pm; Sun: 9.00 am to 9.00 pm","Sat: 3.00 pm to 7.00 pm; Sun: 9.00 am to 7.00 pm","","","","","https://www.myactivesg.com/facilities","https://members.myactivesg.com","","98BB68EA3510D26C","20170807162544",103.687206510383,1.33817883299022,0
"49","kml_49","KEMING PRIMARY SCHOOL","90","BUKIT BATOK EAST AVENUE 6","659762","Indoor Sports Hall/Free-To-Play Field","Sat: 3.00 pm to 9.00 pm; Sun: 9.00 am to 9.00 pm","","Sat: 3.00 pm to 7.00 pm; Sun: 9.00 am to 7.00 pm","","","","https://www.myactivesg.com/facilities","https://members.myactivesg.com","","88EF2A80255A7841","20170807162544",103.755923228029,1.34506348853446,0
"50","kml_50","KENT RIDGE SECONDARY SCHOOL","147","WEST COAST ROAD","127368","Indoor Sports Hall/Chargeable Field","Sat: 3.00 pm to 9.00 pm; Sun: 9.00 am to 9.00 pm","Sat: 3.00 pm to 7.00 pm; Sun: 9.00 am to 7.00 pm","","","","","https://www.myactivesg.com/facilities","https://members.myactivesg.com","","B545A1C6EE2B3DF7","20170807162544",103.764889619013,1.30122774357947,0
"51","kml_51","KRANJI SECONDARY SCHOOL","38","TECK WHYE CRESCENT","688945","Chargeable Field","","Sat: 3.00 pm to 7.00 pm; Sun: 9.00 am to 7.00 pm","","","","","https://www.myactivesg.com/facilities","https://members.myactivesg.com","","37B1CC55A1275EAD","20170807162544",103.756493450452,1.38169398767634,0
"52","kml_52","LAKESIDE PRIMARY SCHOOL","161","CORPORATION WALK","618310","Indoor Sports Hall/Free-To-Play Field","Sat: 3.00 pm to 9.00 pm; Sun: 9.00 am to 9.00 pm","","Sat: 3.00 pm to 7.00 pm; Sun: 9.00 am to 7.00 pm","","","","https://www.myactivesg.com/facilities","https://members.myactivesg.com","","6EFF670F70E1F992","20170807162544",103.718050539521,1.33837569350266,0
"53","kml_53","LOYANG PRIMARY SCHOOL","3","PASIR RIS DRIVE 6","519419","Free-To-Play Field","","","Sat: 3.00 pm to 7.00 pm; Sun: 9.00 am to 7.00 pm","","","","https://www.myactivesg.com/facilities","https://members.myactivesg.com","","0DCCD7145AB72F9C","20170807162544",103.955815969004,1.37116932523887,0
"54","kml_54","MACPHERSON SECONDARY SCHOOL","121","CIRCUIT ROAD","379499","Chargeable Field","","Sat: 3.00 pm to 7.00 pm; Sun: 9.00 am to 7.00 pm","","","","","https://www.myactivesg.com/facilities","https://members.myactivesg.com","","1B4DDC07DCFC529F","20170807162544",103.888419499568,1.32737670228265,0
"55","kml_55","MARSILING SECONDARY SCHOOL","12","MARSILING ROAD","739110","Chargeable Field","","Sat: 3.00 pm to 7.00 pm; Sun: 9.00 am to 7.00 pm","","","","","https://www.myactivesg.com/facilities","https://members.myactivesg.com","","52F6F8B4326C38A8","20170807162544",103.776008096753,1.43664424083533,0
"56","kml_56","MAYFLOWER SECONDARY SCHOOL","2","ANG MO KIO STREET 21","569384","Indoor Sports Hall/Chargeable Field","Sat: 3.00 pm to 9.00 pm; Sun: 9.00 am to 9.00 pm","Sat: 3.00 pm to 7.00 pm; Sun: 9.00 am to 7.00 pm","","","","","https://www.myactivesg.com/facilities","https://members.myactivesg.com","","44D8CE22030B5D75","20170807162544",103.835360730507,1.36827265764226,0
"57","kml_57","MERIDIAN JUNIOR COLLEGE","21","PASIR RIS STREET 71","518799","Chargeable Field","","Mon to Fri: 7.00 pm to 9.00 pm; Sat: 3.00 pm to 9.00 pm; Sun: 9.00 am to 9.00 pm","","","","","https://www.myactivesg.com/facilities","https://members.myactivesg.com","","6128764FF56DEE63","20170807162544",103.936992945441,1.37633380207978,0
"58","kml_58","MERIDIAN PRIMARY SCHOOL","20","PASIR RIS ST 71","518798","Free-To-Play Field","","","Sat: 3.00 pm to 7.00 pm; Sun: 9.00 am to 7.00 pm","","","","https://www.myactivesg.com/facilities","https://members.myactivesg.com","","6F016557C5E6F4B1","20170807162544",103.934889085397,1.37552830847144,0
"59","kml_59","MERIDIAN SECONDARY SCHOOL","31","PASIR RIS STREET 51","518901","Indoor Sports Hall/Chargeable Field","Fri: 7.00 pm to 9.00 pm; Sat: 3.00 pm to 9.00 pm; Sun: 9.00 am to 9.00 pm","Sat: 3.00 pm to 7.00 pm; Sun: 9.00 am to 7.00 pm","","","","","https://www.myactivesg.com/facilities","https://members.myactivesg.com","","8364C54F5D05453F","20170807162544",103.948972493188,1.36724684642223,0
"60","kml_60","FAJAR SECONDARY SCHOOL","58","CHESTNUT DRIVE","679301","Chargeable Field","","Sat: 3.00 pm to 7.00 pm; Sun: 9.00 am to 7.00 pm","","","","","https://www.myactivesg.com/facilities","https://members.myactivesg.com","","7F4724BDFEA29484","20170807162544",103.770575845718,1.36876120634184,0
"61","kml_61","FENGSHAN PRIMARY SCHOOL","307","BEDOK NORTH ROAD","469680","Free-To-Play Field","","","Sat: 3.00 pm to 7.00 pm; Sun: 9.00 am to 7.00 pm","","","","https://www.myactivesg.com/facilities","https://members.myactivesg.com","","43CD462610786175","20170807162544",103.931710297347,1.32980599775814,0
"62","kml_62","FERNVALE PRIMARY SCHOOL","1","FERNVALE LANE","797701","Free-To-Play Field","","","Sat: 3.00 pm to 7.00 pm; Sun: 9.00 am to 7.00 pm","","","","https://www.myactivesg.com/facilities","https://members.myactivesg.com","","6E4FB8DBB78FD782","20170807162544",103.874100979984,1.38997939876861,0
"63","kml_63","FRONTIER PRIMARY SCHOOL","20","JURONG WEST STREET 61","648200","Indoor Sports Hall","Sat: 3.00 pm to 9.00 pm; Sun: 9.00 am to 9.00 pm","","","","","","https://www.myactivesg.com/facilities","https://members.myactivesg.com","","394AFBEEDF83B18F","20170807162544",103.699682818165,1.33664310203947,0
"64","kml_64","FUCHUN SECONDARY SCHOOL","21","WOODLANDS AVENUE 1","739062","Chargeable Field","","Sat: 3.00 pm to 7.00 pm; Sun: 9.00 am to 7.00 pm","","","","","https://www.myactivesg.com/facilities","https://members.myactivesg.com","","EF8436F593237A6D","20170807162544",103.777148007844,1.43083397985612,0
"65","kml_65","FUHUA PRIMARY SCHOOL","65","JURONG EAST STREET 13","609647","Free-To-Play Field","","","Sat: 3.00 pm to 7.00 pm; Sun: 9.00 am to 7.00 pm","","","","https://www.myactivesg.com/facilities","https://members.myactivesg.com","","09BA7D3DBB99C7C5","20170807162544",103.736103750079,1.33650393590797,0
"66","kml_66","FUHUA SECONDARY SCHOOL","5","JURONG WEST STREET 41","649410","Indoor Sports Hall/Chargeable Field","Sat: 3.00 pm to 9.00 pm; Sun: 9.00 am to 9.00 pm","Sat: 3.00 pm to 7.00 pm; Sun: 9.00 am to 7.00 pm","","","","","https://www.myactivesg.com/facilities","https://members.myactivesg.com","","2BEAEF22A9A283DC","20170807162544",103.726520905334,1.34701408186998,0
"67","kml_67","GAN ENG SENG PRIMARY SCHOOL","100","REDHILL CLOSE","158901","Indoor Sports Hall/Free-To-Play Field","Sat: 3.00 pm to 9.00 pm; Sun: 9.00 am to 9.00 pm","","Sat: 3.00 pm to 7.00 pm; Sun: 9.00 am to 7.00 pm","","","","https://www.myactivesg.com/facilities","https://members.myactivesg.com","","9324C4807A0B3FFB","20170807162544",103.815228209369,1.28595540312409,0
"68","kml_68","GAN ENG SENG SCHOOL","1","HENDERSON ROAD","159561","Indoor Sports Hall","Sat: 3.00 pm to 9.00 pm; Sun: 9.00 am to 9.00 pm","","","","","","https://www.myactivesg.com/facilities","https://members.myactivesg.com","","AC0E59130D420924","20170807162544",103.823733676277,1.28907115208096,0
"69","kml_69","GONGSHANG PRIMARY SCHOOL","1","TAMPINES STREET 42","529176","Indoor Sports Hall","Mon - Fri: 7.00pm to 10.00pm; Sat: 3.00 pm to 9.00 pm; Sun: 9.00 am to 9.00 pm","","","","","","https://www.myactivesg.com/facilities","https://members.myactivesg.com","","57D006D44E84E7F5","20170807162544",103.948871926673,1.35734898000058,0
"70","kml_70","GREENDALE PRIMARY SCHOOL","50","EDGEDALE PLAINS","828848","Indoor Sports Hall","Sat: 3.00 pm to 9.00 pm; Sun: 9.00 am to 9.00 pm","","","","","","https://www.myactivesg.com/facilities","https://members.myactivesg.com","","E5DC5045FBB28D0E","20170807162544",103.912341057194,1.39648760363457,0
"71","kml_71","GREENDALE SECONDARY SCHOOL","51","EDGEDALE PLAINS","828866","Chargeable Field","","Sat: 3.00 pm to 7.00 pm; Sun: 9.00 am to 7.00 pm","","","","","https://www.myactivesg.com/facilities","https://members.myactivesg.com","","5ADC15008A06F8ED","20170807162544",103.911575847704,1.39728079664159,0
"72","kml_72","GREENRIDGE SECONDARY SCHOOL","32","BUKIT PANJANG RING ROAD","679938","Indoor Sports Hall/Chargeable Field","Fri: 7.00 pm to 9.00 pm; Sat: 3.00 pm to 9.00 pm; Sun: 9.00 am to 9.00 pm","Sat: 3.00 pm to 7.00 pm; Sun: 9.00 am to 7.00 pm","","","","","https://www.myactivesg.com/facilities","https://members.myactivesg.com","","EAB49B96E5FAD097","20170807162544",103.773616966759,1.3819241840307,0
"73","kml_73","GREENVIEW SECONDARY SCHOOL","15","PASIR RIS STREET 21","518969","Chargeable Field","","Sat: 3.00 pm to 7.00 pm; Sun: 9.00 am to 7.00 pm","","","","","https://www.myactivesg.com/facilities","https://members.myactivesg.com","","9C8578DDAC996F5F","20170807162544",103.962693407687,1.36930602531077,0
"74","kml_74","GREENWOOD PRIMARY SCHOOL","11","WOODLANDS  DR  62","737942","Indoor Sports Hall/Free-To-Play Field","Sat: 3.00 pm to 9.00 pm; Sun: 9.00 am to 9.00 pm","","Sat: 3.00 pm to 7.00 pm; Sun: 9.00 am to 7.00 pm","","","","https://www.myactivesg.com/facilities","https://members.myactivesg.com","","46A9FAE5B1762B46","20170807162544",103.804629302618,1.4401104880704,0
"75","kml_75","HAI SING CATHOLIC SCHOOL","9","PASIR RIS DRIVE 6","519421","Chargeable Field","","Sat: 3.00 pm to 7.00 pm; Sun: 9.00 am to 7.00 pm","","","","","https://www.myactivesg.com/facilities","https://members.myactivesg.com","","84F4FE4548A37A12","20170807162544",103.95475128784,1.37463820129288,0
"76","kml_76","HONG KAH SECONDARY SCHOOL","931","JURONG WEST STREET 42","649370","Indoor Sports Hall","Sat: 3.00 pm to 9.00 pm; Sun: 9.00 am to 9.00 pm","","","","","","https://www.myactivesg.com/facilities","https://members.myactivesg.com","","F564DD28F6A0C259","20170807162544",103.726657936932,1.35204084509393,0
"77","kml_77","HOUGANG PRIMARY SCHOOL","1","HOUGANG ST 93","534238","Indoor Sports Hall","Sat: 3.00 pm to 9.00 pm; Sun: 9.00 am to 9.00 pm","","","","","","https://www.myactivesg.com/facilities","https://members.myactivesg.com","","E888C216840BFFD7","20170807162544",103.880807298033,1.37738248964113,0
"78","kml_78","HOUGANG SECONDARY SCHOOL","2","HOUGANG STREET 93","534256","Indoor Sports Hall/Chargeable Field","Sat: 3.00 pm to 9.00 pm; Sun: 9.00 am to 9.00 pm","Sat: 3.00 pm to 7.00 pm; Sun: 9.00 am to 7.00 pm","","","","","https://www.myactivesg.com/facilities","https://members.myactivesg.com","","4F3EA7E71358F878","20170807162544",103.881871606751,1.37815587193608,0
"79","kml_79","HUA YI SECONDARY SCHOOL","60","JURONG WEST ST 42","649371","Indoor Sports Hall/Chargeable Field","Fri: 7.00 pm to 9.00 pm; Sat: 3.00 pm to 9.00 pm; Sun: 9.00 am to 9.00 pm","Sat: 3.00 pm to 7.00 pm; Sun: 9.00 am to 7.00 pm","","","","","https://www.myactivesg.com/facilities","https://members.myactivesg.com","","3E810EBA14DC0911","20170807162544",103.721726604519,1.35235629343447,0
"80","kml_80","AHMAD IBRAHIM PRIMARY SCHOOL","10","YISHUN STREET 11","768643","Free-To-Play Field","","","Sat: 3.00 pm to 7.00 pm; Sun: 9.00 am to 7.00 pm","","","","https://www.myactivesg.com/facilities","https://members.myactivesg.com","","D200C35A5E4073CF","20170807162544",103.832750468933,1.43341407410764,0
"81","kml_81","AHMAD IBRAHIM SECONDARY SCHOOL","751","YISHUN AVENUE 7","768928","Chargeable Field","","Sat: 3.00 pm to 7.00 pm; Sun: 9.00 am to 7.00 pm","","","","","https://www.myactivesg.com/facilities","https://members.myactivesg.com","","398B05270E51629D","20170807162544",103.829715264727,1.43606162160047,0
"82","kml_82","ANCHOR GREEN PRIMARY SCHOOL","31","ANCHORVALE DRIVE","544969","Indoor Sports Hall/Free-To-Play Field","Fri: 7.00 pm to 9.00 pm; Sat: 3.00 pm to 9.00 pm; Sun: 9.00 am to 9.00 pm","","Sat: 3.00 pm to 7.00 pm; Sun: 9.00 am to 7.00 pm","","","","https://www.myactivesg.com/facilities","https://members.myactivesg.com","","1D90BAA4B7557165","20170807162544",103.887164637788,1.39037046090285,0
"83","kml_83","ANDERSON SECONDARY SCHOOL","10","ANG MO KIO STREET 53","569206","Indoor Sports Hall/Chargeable Field","Sat: 3.00 pm to 9.00 pm; Sun: 9.00 am to 9.00 pm","Sat: 3.00 pm to 7.00 pm; Sun: 9.00 am to 7.00 pm","","","","","https://www.myactivesg.com/facilities","https://members.myactivesg.com","","5A5E4F7C140E1894","20170807162544",103.851429955968,1.37424218777906,0
"84","kml_84","ANG MO KIO PRIMARY SCHOOL","20","ANG MO KIO AVENUE 3","569920","Indoor Sports Hall/Free-To-Play Field","Sat: 3.00 pm to 9.00 pm; Sun: 9.00 am to 9.00 pm","","Sat: 3.00 pm to 7.00 pm; Sun: 9.00 am to 7.00 pm","","","","https://www.myactivesg.com/facilities","https://members.myactivesg.com","","23EDA8D36E70E8DC","20170807162544",103.839041363223,1.3690920581723,0
"85","kml_85","ANG MO KIO SECONDARY SCHOOL","6","ANG MO KIO STREET 22","569362","Indoor Sports Hall/Chargeable Field","Sat: 3.00 pm to 9.00 pm; Sun: 9.00 am to 9.00 pm","Sat: 3.00 pm to 7.00 pm; Sun: 9.00 am to 7.00 pm","","","","","https://www.myactivesg.com/facilities","https://members.myactivesg.com","","72B129AFAA50F420","20170807162544",103.842154983012,1.36733709450633,0
"86","kml_86","BARTLEY SECONDARY SCHOOL","10","JALAN BUNGA RAMPAI","538403","Chargeable Field","","Sat: 3.00 pm to 7.00 pm; Sun: 9.00 am to 7.00 pm","","","","","https://www.myactivesg.com/facilities","https://members.myactivesg.com","","2732DF51D5DD9E6C","20170807162544",103.882455035432,1.34001741778915,0
"87","kml_87","BEATTY SECONDARY SCHOOL","1","TOA PAYOH NORTH","318990","Indoor Sports Hall/Chargeable Field","Sat: 3.00 pm to 9.00 pm; Sun: 9.00 am to 9.00 pm","Sat: 3.00 pm to 7.00 pm; Sun: 9.00 am to 7.00 pm","","","","","https://www.myactivesg.com/facilities","https://members.myactivesg.com","","0A0029F15B7D1728","20170807162544",103.852064860834,1.34179050870911,0
"88","kml_88","BEDOK GREEN PRIMARY SCHOOL","1","BEDOK SOUTH AVE 2","469317","Free-To-Play Field","","","Sat: 3.00 pm to 7.00 pm; Sun: 9.00 am to 7.00 pm","","","","https://www.myactivesg.com/facilities","https://members.myactivesg.com","","204E9238C0FCDCCF","20170807162544",103.937745023588,1.32399627984917,0
"89","kml_89","BEDOK GREEN SECONDARY SCHOOL","360","BEDOK NORTH AVE 3","469722","Chargeable Field","","Sat: 3.00 pm to 7.00 pm; Sun: 9.00 am to 7.00 pm","","","","","https://www.myactivesg.com/facilities","https://members.myactivesg.com","","3994E66D71F24686","20170807162544",103.93502838615,1.33451947093533,0
"90","kml_90","BEDOK NORTH SECONDARY SCHOOL","20","JALAN DAMAI","419612","Indoor Sports Hall/Chargeable Field","Sat: 3.00 pm to 9.00 pm; Sun: 9.00 am to 9.00 pm","Sat: 3.00 pm to 7.00 pm; Sun: 9.00 am to 7.00 pm","","","","","https://www.myactivesg.com/facilities","https://members.myactivesg.com","","EEC91CCABD417E98","20170807162544",103.910293061612,1.33427427218437,0
"91","kml_91","BEDOK SOUTH SECONDARY SCHOOL","1","JALAN LANGGAR BEDOK","468585","Indoor Sports Hall/Chargeable Field","Sat: 3.00 pm to 9.00 pm; Sun: 9.00 am to 9.00 pm","Sat: 3.00 pm to 7.00 pm; Sun: 9.00 am to 7.00 pm","","","","","https://www.myactivesg.com/facilities","https://members.myactivesg.com","","A8F0BE1714EC5704","20170807162544",103.950621244849,1.32565342360567,0
"92","kml_92","BEDOK VIEW SECONDARY SCHOOL","6","BEDOK SOUTH AVENUE 3","469293","Indoor Sports Hall/Chargeable Field","Sat: 3.00 pm to 9.00 pm; Sun: 9.00 am to 9.00 pm","Sat: 3.00 pm to 7.00 pm; Sun: 7.00 am to 7.00 pm","","","","","https://www.myactivesg.com/facilities","https://members.myactivesg.com","","BBCF3295DBD121EF","20170807162544",103.943475233537,1.32399940271361,0
"93","kml_93","BENDEMEER PRIMARY SCHOOL","91","BENDEMEER ROAD","339948","Indoor Sports Hall/Free-To-Play Field","Sat: 3.00 pm to 9.00 pm; Sun: 9.00 am to 9.00 pm","","Sat: 3.00 pm to 7.00 pm; Sun: 9.00 am to 7.00 pm","","","","https://www.myactivesg.com/facilities","https://members.myactivesg.com","","3ED1EBC1481D9022","20170807162544",103.865351336179,1.32220848541226,0
"94","kml_94","BENDEMEER SECONDARY SCHOOL","1","ST WILFRED ROAD","327919","Indoor Sports Hall/Chargeable Field","Fri: 7.00 pm to 9.00 pm; Sat: 3.00 pm to 9.00 pm; Sun: 9.00 am to 9.00 pm","Sat: 3.00 pm to 7.00 pm; Sun: 9.00 am to 7.00 pm","","","","","https://www.myactivesg.com/facilities","https://members.myactivesg.com","","E8A00124A0C0EF9D","20170807162544",103.860518355705,1.32434843899899,0
"95","kml_95","BISHAN PARK SECONDARY SCHOOL","2","SIN MING WALK","575565","Chargeable Field","","Sat: 3.00 pm to 7.00 pm; Sun: 9.00 am to 7.00 pm","","","","","https://www.myactivesg.com/facilities","https://members.myactivesg.com","","7D9123DA907E3554","20170807162544",103.832729307397,1.36523415170399,0
"96","kml_96","BLANGAH RISE PRIMARY SCHOOL","91","TELOK BLANGAH HEIGHTS","109100","Indoor Sports Hall/Free-To-Play Field","Sat: 3.00 pm to 9.00 pm; Sun: 9.00 am to 9.00 pm","","Sat: 3.00 pm to 7.00 pm; Sun: 9.00 am to 7.00 pm","","","","https://www.myactivesg.com/facilities","https://members.myactivesg.com","","2871CBE57C82644F","20170807162544",103.808615028586,1.27610743444072,0
"97","kml_97","BOON LAY GARDEN PRIMARY SCHOOL","20","BOON LAY DRIVE","649930","Free-To-Play Field","","","Sat: 3.00 pm to 7.00 pm; Sun: 9.00 am to 7.00 pm","","","","https://www.myactivesg.com/facilities","https://members.myactivesg.com","","ACE5C6F14BCCF27D","20170807162544",103.712969005453,1.34284670377239,0
"98","kml_98","BOON LAY SECONDARY SCHOOL","11","JURONG WEST STREET 65","648354","Indoor Sports Hall/Chargeable Field","Sat: 3.00 pm to 9.00 pm; Sun: 9.00 am to 9.00 pm","Sat: 3.00 pm to 7.00 pm; Sun: 9.00 am to 7.00 pm","","","","","https://www.myactivesg.com/facilities","https://members.myactivesg.com","","126E9EDE5A7019DE","20170807162544",103.701702926073,1.34322371410832,0
"99","kml_99","PEIRCE SECONDARY SCHOOL","10","SIN MING WALK","575566","Indoor Sports Hall/Chargeable Field","Fri: 7.00 pm to 9.00 pm; Sat: 3.00 pm to 9.00 pm; Sun: 9.00 am to 9.00 pm","Sat: 3.00 pm to 7.00 pm; Sun: 9.00 am to 7.00 pm","","","","","https://www.myactivesg.com/facilities","https://members.myactivesg.com","","2CAB327DF3D45177","20170807162544",103.829910363276,1.36613167032071,0
"100","kml_100","PING YI SECONDARY SCHOOL","61","CHAI CHEE STREET","468980","Indoor Sports Hall/Chargeable Field","Sat: 3.00 pm to 9.00 pm; Sun: 9.00 am to 9.00 pm","Sat: 3.00 pm to 7.00 pm; Sun: 9.00 am to 7.00 pm","","","","","https://www.myactivesg.com/facilities","https://members.myactivesg.com","","4F3427332AD88403","20170807162544",103.920700681247,1.32701673523367,0
"101","kml_101","PIONEER JUNIOR COLLEGE","21","TECK WHYE WALK","688258","Chargeable Field","","Sat: 3.00 pm to 7.00 pm; Sun: 9.00 am to 7.00 pm","","","","","https://www.myactivesg.com/facilities","https://members.myactivesg.com","","A41DEBBF3C367C59","20170807162544",103.753932801452,1.38460948977974,0
"102","kml_102","POI CHING SCHOOL","21","TAMPINES STREET 71","529067","Indoor Sports Hall","Fri: 7.00 pm to 9.00 pm; Sat: 3.00 pm to 9.00 pm; Sun: 9.00 am to 9.00 pm","","","","","","https://www.myactivesg.com/facilities","https://members.myactivesg.com","","149B45EB23BDD266","20170807162544",103.935246486139,1.35765121865386,0
"103","kml_103","PUNGGOL PRIMARY SCHOOL","61","HOUGANG AVENUE 8","538787","Free-To-Play Field","","","Sat: 3.00 pm to 7.00 pm; Sun: 9.00 am to 7.00 pm","","","","https://www.myactivesg.com/facilities","https://members.myactivesg.com","","EDF721757DFB8994","20170807162544",103.894506937393,1.37779450556837,0
"104","kml_104","PUNGGOL SECONDARY SCHOOL","51","EDGEFIELD PLAINS","828870","Indoor Sports Hall/Chargeable Field","Sat: 3.00 pm to 9.00 pm; Sun: 9.00 am to 9.00 pm","Sat: 3.00 pm to 7.00 pm; Sun: 9.00 am to 7.00 pm","","","","","https://www.myactivesg.com/facilities","https://members.myactivesg.com","","3E6A432960E61D1C","20170807162544",103.909119269709,1.40212628963862,0
"105","kml_105","QIHUA PRIMARY SCHOOL","5","WOODLANDS STREET 81","738525","Indoor Sports Hall","Sat: 3.00 pm to 9.00 pm; Sun: 9.00 am to 9.00 pm","","","","","","https://www.myactivesg.com/facilities","https://members.myactivesg.com","","AAFECAD13091D38E","20170807162544",103.788339762148,1.44203596558261,0
"106","kml_106","QUEENSTOWN PRIMARY SCHOOL","310","MARGARET DR","149303","Indoor Sports Hall","Sat: 3.00 pm to 9.00 pm; Sun: 9.00 am to 9.00 pm","","","","","","https://www.myactivesg.com/facilities","https://members.myactivesg.com","","76F94A022729AC06","20170807162544",103.807548624196,1.29559366036419,0
"107","kml_107","QUEENSTOWN SECONDARY SCHOOL","1","STRATHMORE ROAD","148800","Indoor Sports Hall/Chargeable Field","Sat: 3.00 pm to 9.00 pm; Sun: 9.00 am to 9.00 pm","Sat: 3.00 pm to 7.00 pm; Sun: 9.00 am to 7.00 pm","","","","","https://www.myactivesg.com/facilities","https://members.myactivesg.com","","C4291E871022856E","20170807162544",103.8131754719,1.29353330102916,0
"108","kml_108","QUEENSWAY SECONDARY SCHOOL","2A","MARGARET DRIVE","149295","Indoor Sports Hall/Chargeable Field","Fri: 7.00 pm to 9.00 pm; Sat: 3.00 pm to 9.00 pm; Sun: 9.00 am to 9.00 pm","Sat: 3.00 pm to 7.00 pm; Sun: 9.00 am to 7.00 pm","","","","","https://www.myactivesg.com/facilities","https://members.myactivesg.com","","AB0289D926A0E753","20170807162544",103.801723615278,1.30047516911015,0
"109","kml_109","RADIN MAS PRIMARY SCHOOL","1","BUKIT PURMEI AVENUE","99840","Indoor Sports Hall/Free-To-Play Field","Sat: 3.00 pm to 9.00 pm; Sun: 9.00 am to 9.00 pm","","Sat: 3.00 pm to 7.00 pm; Sun: 9.00 am to 7.00 pm","","","","https://www.myactivesg.com/facilities","https://members.myactivesg.com","","CD57A4794FECC77F","20170807162544",103.824179970675,1.27496162124083,0
"110","kml_110","REGENT SECONDARY SCHOOL","50","CHOA CHU KANG NORTH 5","689621","Chargeable Field","","Sat: 3.00 pm to 7.00 pm; Sun: 9.00 am to 7.00 pm","","","","","https://www.myactivesg.com/facilities","https://members.myactivesg.com","","B8DE2DAFB3637A14","20170807162544",103.750685558086,1.39309407562603,0
"111","kml_111","RIVERSIDE SECONDARY SCHOOL","3","WOODLANDS STREET 81","738524","Indoor Sports Hall/Chargeable Field","Sat: 3.00 pm to 9.00 pm; Sun: 9.00 am to 9.00 pm","Sat: 3.00 pm to 7.00 pm; Sun: 9.00 am to 7.00 pm","","","","","https://www.myactivesg.com/facilities","https://members.myactivesg.com","","E235545D6BC84624","20170807162544",103.788308240623,1.44110156940527,0
"112","kml_112","ROSYTH SCHOOL","21","SERANGOON NORTH AVENUE 4","555855","Free-To-Play Field","","","Sat: 3.00 pm to 7.00 pm; Sun: 9.00 am to 7.00 pm","","","","https://www.myactivesg.com/facilities","https://members.myactivesg.com","","19E674C016F4A293","20170807162544",103.874693248389,1.37291579400727,0
"113","kml_113","SEMBAWANG PRIMARY SCHOOL","10","SEMBAWANG DRIVE","757715","Indoor Sports Hall","Sat: 3.00 pm to 9.00 pm; Sun: 9.00 am to 9.00 pm","","","","","","https://www.myactivesg.com/facilities","https://members.myactivesg.com","","95C71B65D5AE33CA","20170807162544",103.821021514143,1.44504364292379,0
"114","kml_114","SEMBAWANG SECONDARY SCHOOL","30","SEMBAWANG CRESCENT","757704","Indoor Sports Hall/Chargeable Field","Sat: 3.00 pm to 9.00 pm; Sun: 9.00 am to 9.00 pm","Sat: 3.00 pm to 7.00 pm; Sun: 9.00 am to 7.00 pm","","","","","https://www.myactivesg.com/facilities","https://members.myactivesg.com","","6030DF6770D093DA","20170807162544",103.816843260804,1.44531501671004,0
"115","kml_115","SENG KANG SECONDARY SCHOOL","10","COMPASSVALE LANE","545090","Chargeable Field","","Sat: 3.00 pm to 7.00 pm; Sun: 9.00 am to 7.00 pm","","","","","https://www.myactivesg.com/facilities","https://members.myactivesg.com","","BF8A21335AC05649","20170807162544",103.89835604419,1.38658828096598,0
"116","kml_116","SENGKANG GREEN PRIMARY SCHOOL","15","FERNVALE ROAD","797636","Indoor Sports Hall/Free-To-Play Field","Sat: 3.00 pm to 9.00 pm; Sun: 9.00 am to 9.00 pm","","Sat: 3.00 pm to 7.00 pm; Sun: 9.00 am to 7.00 pm","","","","https://www.myactivesg.com/facilities","https://members.myactivesg.com","","9720AFF660720A6D","20170807162544",103.874984878488,1.39254008325311,0
"117","kml_117","SERANGOON GARDEN SECONDARY SCHOOL","21","SERANGOON NORTH AVENUE 1","555889","Indoor Sports Hall/Chargeable Field","Sat: 3.00 pm to 9.00 pm; Sun: 9.00 am to 9.00 pm","Sat: 3.00 pm to 7.00 pm; Sun: 9.00 am to 7.00 pm","","","","","https://www.myactivesg.com/facilities","https://members.myactivesg.com","","FB15D0BBC23987CB","20170807162544",103.869149727419,1.36989047683826,0
"118","kml_118","WELLINGTON PRIMARY SCHOOL","10","WELLINGTON CIRCLE","757702","Free-To-Play Field","","","Sat: 3.00 pm to 7.00 pm; Sun: 9.00 am to 7.00 pm","","","","https://www.myactivesg.com/facilities","https://members.myactivesg.com","","37D553C2120B400B","20170807162544",103.822306257521,1.4519165483829,0
"119","kml_119","WEST SPRING SECONDARY SCHOOL","61","SENJA  ROAD","677737","Indoor Sports Hall/Chargeable Field","Sat: 3.00 pm to 9.00 pm; Sun: 9.00 am to 9.00 pm","Sat: 3.00 pm to 7.00 pm; Sun: 9.00 am to 7.00 pm","","","","","https://www.myactivesg.com/facilities","https://members.myactivesg.com","","C86367E5AEB11084","20170807162544",103.76012882914,1.38782283761011,0
"120","kml_120","WEST VIEW PRIMARY SCHOOL","31","SENJA ROAD","677742","Free-To-Play Field","","","Sat: 3.00 pm to 7.00 pm; Sun: 9.00 am to 7.00 pm","","","","https://www.myactivesg.com/facilities","https://members.myactivesg.com","","F1EE90EBD20F544E","20170807162544",103.760240437241,1.3836758183839,0
"121","kml_121","WESTWOOD SECONDARY SCHOOL","11","JURONG WEST STREET 25","648350","Chargeable Field","","Sat: 3.00 pm to 7.00 pm; Sun: 9.00 am to 7.00 pm","","","","","https://www.myactivesg.com/facilities","https://members.myactivesg.com","","72E48023DA90E12B","20170807162544",103.701604297349,1.3535261288265,0
"122","kml_122","WHITE SANDS PRIMARY SCHOOL","2","PASIR RIS ST 11","519075","Free-To-Play Field","","","Sat: 3.00 pm to 7.00 pm; Sun: 9.00 am to 7.00 pm","","","","https://www.myactivesg.com/facilities","https://members.myactivesg.com","","DBEDF0A726B900FD","20170807162544",103.960918869725,1.36555714419811,0
"123","kml_123","WOODGROVE PRIMARY SCHOOL","2","WOODLANDS DRIVE 14","738079","Free-To-Play Field","","","Sat: 3.00 pm to 7.00 pm; Sun: 9.00 am to 7.00 pm","","","","https://www.myactivesg.com/facilities","https://members.myactivesg.com","","267E341088CD2BC6","20170807162544",103.790389626754,1.43305805971002,0
"124","kml_124","WOODGROVE SECONDARY SCHOOL","3","WOODLANDS AVENUE 6","738990","Chargeable Field","","Sat: 3.00 pm to 7.00 pm; Sun: 9.00 am to 7.00 pm","","","","","https://www.myactivesg.com/facilities","https://members.myactivesg.com","","50C8FAFCC0E51665","20170807162544",103.796047587773,1.42831827933231,0
"125","kml_125","WOODLANDS PRIMARY SCHOOL","10","WOODLANDS DRIVE 50","738853","Free-To-Play Field","","","Sat: 3.00 pm to 7.00 pm; Sun: 9.00 am to 7.00 pm","","","","https://www.myactivesg.com/facilities","https://members.myactivesg.com","","A8550D8E1224B9C2","20170807162544",103.791570546245,1.43655108547729,0
"126","kml_126","WOODLANDS RING PRIMARY SCHOOL","11","WOODLANDS RING ROAD","738240","Indoor Sports Hall","Sat: 3.00 pm to 9.00 pm; Sun: 9.00 am to 9.00 pm","","","","","","https://www.myactivesg.com/facilities","https://members.myactivesg.com","","374AF2740561EBAB","20170807162544",103.797435739807,1.43495228178032,0
"127","kml_127","WOODLANDS RING SECONDARY SCHOOL","10","WOODLANDS RING ROAD","738239","Chargeable Field","","Sat: 3.00 pm to 7.00 pm; Sun: 9.00 am to 7.00 pm","","","","","https://www.myactivesg.com/facilities","https://members.myactivesg.com","","B20EB13E6144A5A2","20170807162544",103.800148471822,1.43648894260373,0
"128","kml_128","WOODLANDS SECONDARY SCHOOL","11","MARSILING ROAD","739111","Indoor Sports Hall/Chargeable Field","Fri: 7.00 pm to 9.00 pm; Sat: 3.00 pm to 9.00 pm; Sun: 9.00 am to 9.00 pm","Sat: 3.00 pm to 7.00 pm; Sun: 9.00 am to 7.00 pm","","","","","https://www.myactivesg.com/facilities","https://members.myactivesg.com","","78B3A758767049F8","20170807162544",103.77449878237,1.43918331518226,0
"129","kml_129","XINGHUA PRIMARY SCHOOL","45","HOUGANG AVENUE 1","538882","Indoor Sports Hall","Fri: 7.00 pm to 9.00 pm; Sat: 3.00 pm to 9.00 pm; Sun: 9.00 am to 9.00 pm","","","","","","https://www.myactivesg.com/facilities","https://members.myactivesg.com","","6C6E4CE0AB0B577B","20170807162544",103.890216355482,1.3579965377036,0
"130","kml_130","XINGNAN PRIMARY SCHOOL","5","JURONG WEST STREET 91","649036","Free-To-Play Field","","","Sat: 3.00 pm to 7.00 pm; Sun: 9.00 am to 7.00 pm","","","","https://www.myactivesg.com/facilities","https://members.myactivesg.com","","87E0C96B7B06DED7","20170807162544",103.687723993857,1.34268486989979,0
"131","kml_131","YIO CHU KANG SECONDARY SCHOOL","3063","ANG MO KIO AVENUE 5","569868","Indoor Sports Hall/Chargeable Field","Sat: 3.00 pm to 9.00 pm; Sun: 9.00 am to 9.00 pm","Sat: 3.00 pm to 7.00 pm; Sun: 9.00 am to 7.00 pm","","","","","https://www.myactivesg.com/facilities","https://members.myactivesg.com","","37D30475F7F76D37","20170807162544",103.841809445167,1.37826334975799,0
"132","kml_132","YISHUN PRIMARY SCHOOL","500","YISHUN RING ROAD","768679","Indoor Sports Hall","Sat: 3.00 pm to 9.00 pm; Sun: 9.00 am to 9.00 pm","","","","","","https://www.myactivesg.com/facilities","https://members.myactivesg.com","","729D2BD75F38940B","20170807162544",103.834027414116,1.43349639198206,0
"133","kml_133","YISHUN SECONDARY SCHOOL","4","YISHUN STREET 71","768516","Indoor Sports Hall","Sat: 3.00 pm to 9.00 pm; Sun: 9.00 am to 9.00 pm","","","","","","https://www.myactivesg.com/facilities","https://members.myactivesg.com","","E638B34B6E9FA8A2","20170807162544",103.828764322732,1.42813323878659,0
"134","kml_134","YISHUN TOWN SECONDARY SCHOOL","6","YISHUN STREET 21","768610","Indoor Sports Hall","Sat: 3.00 pm to 9.00 pm; Sun: 9.00 am to 9.00 pm","","","","","","https://www.myactivesg.com/facilities","https://members.myactivesg.com","","B597122B170EC685","20170807162544",103.838011680251,1.43260423058736,0
"135","kml_135","YUAN CHING SECONDARY SCHOOL","103","YUAN CHING ROAD","618654","Indoor Sports Hall","Fri: 7.00 pm to 9.00 pm; Sat: 3.00 pm to 9.00 pm; Sun: 9.00 am to 9.00 pm","","","","","","https://www.myactivesg.com/facilities","https://members.myactivesg.com","","1310526732D0002D","20170807162544",103.72063079816,1.34189187164866,0
"136","kml_136","YUHUA PRIMARY SCHOOL","158","JURONG EAST STREET 24","609558","Free-To-Play Field","","","Sat: 3.00 pm to 7.00 pm; Sun: 9.00 am to 7.00 pm","","","","https://www.myactivesg.com/facilities","https://members.myactivesg.com","","077445B6A42CCCE0","20170807162544",103.740861148863,1.34291981622659,0
"137","kml_137","YUMIN PRIMARY SCHOOL","3","TAMPINES STREET 21","529393","Free-To-Play Field","","","Sat: 3.00 pm to 7.00 pm; Sun: 9.00 am to 7.00 pm","","","","https://www.myactivesg.com/facilities","https://members.myactivesg.com","","07F6DD3465DBAEE3","20170807162544",103.95046193579,1.35129177509253,0
"138","kml_138","YUSOF ISHAK SECONDARY SCHOOL","11","BUKIT BATOK STREET 25","658712","Indoor Sports Hall/Chargeable Field","Fri: 7.00 pm to 9.00 pm; Sat: 3.00 pm to 9.00 pm; Sun: 9.00 am to 9.00 pm","Sat: 3.00 pm to 7.00 pm; Sun: 9.00 am to 7.00 pm","","","","","https://www.myactivesg.com/facilities","https://members.myactivesg.com","","5E1B4F79F8269008","20170807162544",103.760013148585,1.34233377740887,0
"139","kml_139","YUYING SECONDARY SCHOOL","47","HOUGANG AVENUE 1","538884","Indoor Sports Hall","Sat: 3.00 pm to 9.00 pm; Sun: 9.00 am to 9.00 pm","","","","","","https://www.myactivesg.com/facilities","https://members.myactivesg.com","","8595832EC3146B95","20170807162544",103.890194759022,1.35713594368861,0
"140","kml_140","ZHANGDE PRIMARY SCHOOL","51","JALAN MEMBINA","169485","Indoor Sports Hall/Free-To-Play Field","Sat: 3.00 pm to 9.00 pm; Sun: 9.00 am to 9.00 pm","","Sat: 3.00 pm to 7.00 pm; Sun: 9.00 am to 7.00 pm","","","","https://www.myactivesg.com/facilities","https://members.myactivesg.com","","78978DC559A2B47C","20170807162544",103.825951884653,1.28421153850458,0
"141","kml_141","ZHENGHUA PRIMARY SCHOOL","9","FAJAR ROAD","679002","Free-To-Play Field","","","Sat: 3.00 pm to 7.00 pm; Sun: 9.00 am to 7.00 pm","","","","https://www.myactivesg.com/facilities","https://members.myactivesg.com","","0B4A2E9335FD6C30","20170807162544",103.769170805836,1.37980235702953,0
"142","kml_142","ZHONGHUA PRIMARY SCHOOL","12","SERANGOON AVENUE 4","556095","Indoor Sports Hall","Sat: 3.00 pm to 9.00 pm; Sun: 9.00 am to 9.00 pm","","","","","","https://www.myactivesg.com/facilities","https://members.myactivesg.com","","40CD76FAE6BE4ACC","20170807162544",103.869762443355,1.36020329690474,0
"143","kml_143","FAJAR SECONDARY SCHOOL","58","CHESTNUT DRIVE","679301","Free-To-Play Court","","","","Sat: 3.00 pm to 7.00 pm; Sun: 9.00 am to 7.00 pm","","","https://www.myactivesg.com/facilities","https://members.myactivesg.com","","7F4724BDDAC27129","20170807162544",103.770575845718,1.36876120634184,0
"144","kml_144","CREST SECONDARY SCHOOL","561","JURONG EAST STREET 24","609561","Outdoor Basketball Court/Street Soccer Court","","","","","Thu - Fri:  7.00 am to 9.00 pm; Sat: 3.00 pm to 9.00 pm; Sun: 9.00 am to 9.00 pm","Thu - Fri:  7.00 am to 9.00 pm; Sat: 3.00 pm to 9.00 pm; Sun: 9.00 am to 9.00 pm","https://www.myactivesg.com/facilities","https://members.myactivesg.com","","2165085249EC5F74","20170807162544",103.742543059465,1.34355501585903,0
"145","kml_145","SERANGOON SECONDARY SCHOOL","11","UPPER SERANGOON VIEW","534237","Chargeable Field","","Sat: 3.00 pm to 7.00 pm; Sun: 9.00 am to 7.00 pm","","","","","https://www.myactivesg.com/facilities","https://members.myactivesg.com","","D620ED94DADE2E73","20170807162544",103.901910366229,1.37555532908588,0
"146","kml_146","SHUQUN SECONDARY SCHOOL","450","JURONG EAST STREET 21","609604","Indoor Sports Hall/Chargeable Field","Sat: 3.00 pm to 9.00 pm; Sun: 9.00 am to 9.00 pm","Sat: 3.00 pm to 7.00 pm; Sun: 9.00 am to 7.00 pm","","","","","https://www.myactivesg.com/facilities","https://members.myactivesg.com","","A43C7973593D66C7","20170807162544",103.739470069779,1.34034339377233,0
"147","kml_147","SI LING PRIMARY SCHOOL","61","WOODLANDS AVENUE 1","739067","Free-To-Play Field","","","Sat: 3.00 pm to 7.00 pm; Sun: 9.00 am to 7.00 pm","","","","https://www.myactivesg.com/facilities","https://members.myactivesg.com","","542766E9756C2190","20170807162544",103.785778778479,1.43269985639594,0
"148","kml_148","SI LING SECONDARY SCHOOL","11","MARSILING LANE","739148","Chargeable Field","","Sat: 3.00 pm to 7.00 pm; Sun: 9.00 am to 7.00 pm","","","","","https://www.myactivesg.com/facilities","https://members.myactivesg.com","","B6BE08FEAC294957","20170807162544",103.775000326476,1.44473607693072,0
"149","kml_149","SOUTH VIEW PRIMARY SCHOOL","6","CHOA CHU KANG CENTRAL","689762","Indoor Sports Hall/Free-To-Play Field","Sat: 3.00 pm to 9.00 pm; Sun: 9.00 am to 9.00 pm","","Sat: 3.00 pm to 7.00 pm; Sun: 9.00 am to 7.00 pm","","","","https://www.myactivesg.com/facilities","https://members.myactivesg.com","","106FACF667E06B85","20170807162544",103.746275851474,1.38166664411305,0
"150","kml_150","SPECTRA SECONDARY SCHOOL","1","WOODLANDS DRIVE 64","737758","Indoor Sports Hall","Mon - Fri: 7.00pm to 10.00pm; Sat: 3.00 pm to 9.00 pm; Sun: 9.00 am to 9.00 pm","","","","","","https://www.myactivesg.com/facilities","https://members.myactivesg.com","","2164A8C9E3876C01","20170807162544",103.804100471507,1.43703750251143,0
"151","kml_151","SPRINGFIELD SECONDARY SCHOOL","30","TAMPINES AVENUE 8","529593","Indoor Sports Hall/Chargeable Field","Sat: 3.00 pm to 9.00 pm; Sun: 9.00 am to 9.00 pm","Sat: 3.00 pm to 7.00 pm; Sun: 9.00 am to 7.00 pm","","","","","https://www.myactivesg.com/facilities","https://members.myactivesg.com","","A6E5CFC3443D79BC","20170807162544",103.9302183388,1.34957562688573,0
"152","kml_152","ST. ANTHONY'S PRIMARY SCHOOL","30","BUKIT BATOK ST 32","659401","Indoor Sports Hall","Sat: 3.00 pm to 9.00 pm; Sun: 9.00 am to 9.00 pm","","","","","","https://www.myactivesg.com/facilities","https://members.myactivesg.com","","11A7AE6A0ED0ED4D","20170807162544",103.749251927223,1.36411675856009,0
"153","kml_153","ST. GABRIEL'S SECONDARY SCHOOL","24","SERANGOON AVENUE 1","556140","Indoor Sports Hall/Chargeable Field","Fri: 7.00 pm to 9.00 pm; Sat: 3.00 pm to 9.00 pm; Sun: 9.00 am to 9.00 pm","Sat: 3.00 pm to 7.00 pm; Sun: 9.00 am to 7.00 pm","","","","","https://www.myactivesg.com/facilities","https://members.myactivesg.com","","6F4470E0122ECE8B","20170807162544",103.875734252953,1.3466441645521,0
"154","kml_154","SWISS COTTAGE SECONDARY SCHOOL","3","BUKIT BATOK STREET 34","659322","Indoor Sports Hall","Sat: 3.00 pm to 9.00 pm; Sun: 9.00 am to 9.00 pm","","","","","","https://www.myactivesg.com/facilities","https://members.myactivesg.com","","BFB5D557A8A55A10","20170807162544",103.750396144022,1.36471742060125,0
"155","kml_155","TAMPINES SECONDARY SCHOOL","252","TAMPINES ST 12","529427","Chargeable Field","","Sat: 3.00 pm to 7.00 pm; Sun: 9.00 am to 7.00 pm","","","","","https://www.myactivesg.com/facilities","https://members.myactivesg.com","","442DF9E76A86A482","20170807162544",103.943989098423,1.34943479795817,0
"156","kml_156","TANGLIN SECONDARY SCHOOL","301","WEST COAST ROAD","127391","Chargeable Field","","Sat: 3.00 pm to 7.00 pm; Sun: 9.00 am to 7.00 pm","","","","","https://www.myactivesg.com/facilities","https://members.myactivesg.com","","CD20B6DEEA24D09A","20170807162544",103.758158367812,1.30970169809694,0
"157","kml_157","TANJONG KATONG SECONDARY SCHOOL","130","HAIG ROAD","438796","Indoor Sports Hall/Chargeable Field","Sat: 3.00 pm to 9.00 pm; Sun: 9.00 am to 9.00 pm","Sat: 3.00 pm to 7.00 pm; Sun: 9.00 am to 7.00 pm","","","","","https://www.myactivesg.com/facilities","https://members.myactivesg.com","","D5DEBEC1CED2610D","20170807162544",103.897225198119,1.30873516279044,0
"158","kml_158","TEMASEK PRIMARY SCHOOL","501","BEDOK SOUTH AVE 3","469300","Indoor Sports Hall/Free-To-Play Field","Sat: 3.00 pm to 9.00 pm; Sun: 9.00 am to 9.00 pm","","Sat: 3.00 pm to 7.00 pm; Sun: 9.00 am to 7.00 pm","","","","https://www.myactivesg.com/facilities","https://members.myactivesg.com","","00B78A438807BB63","20170807162544",103.945590673323,1.31770678178723,0
"159","kml_159","TEMASEK SECONDARY SCHOOL","600","UPPER EAST COAST ROAD","465561","Indoor Sports Hall/Chargeable Field","Sat: 3.00 pm to 9.00 pm; Sun: 9.00 am to 9.00 pm","Sat: 3.00 pm to 7.00 pm; Sun: 9.00 am to 7.00 pm","","","","","https://www.myactivesg.com/facilities","https://members.myactivesg.com","","4150108BA09F2A52","20170807162544",103.947147541881,1.31577099247804,0
"160","kml_160","TOWNSVILLE PRIMARY SCHOOL","3","ANG MO KIO AVE 10","569730","Indoor Sports Hall/Free-To-Play Field","Sat: 3.00 pm to 9.00 pm; Sun: 9.00 am to 9.00 pm","","Sat: 3.00 pm to 7.00 pm; Sun: 9.00 am to 7.00 pm","","","","https://www.myactivesg.com/facilities","https://members.myactivesg.com","","D5D63CE9CCDAF140","20170807162544",103.853826054631,1.36003262538679,0
"161","kml_161","UNITY PRIMARY SCHOOL","21","CHOA CHU KANG CRESCENT","688268","Indoor Sports Hall/Free-To-Play Field","Sat: 3.00 pm to 9.00 pm; Sun: 9.00 am to 9.00 pm","","Sat: 3.00 pm to 7.00 pm; Sun: 9.00 am to 7.00 pm","","","","https://www.myactivesg.com/facilities","https://members.myactivesg.com","","6FF93A45BA166D1D","20170807162544",103.746822628648,1.40285481677385,0
"162","kml_162","UNITY SECONDARY SCHOOL","20","CHOA CHU KANG STREET 62","689143","Indoor Sports Hall/Chargeable Field","Fri: 7.00 pm to 9.00 pm; Sat: 3.00 pm to 9.00 pm; Sun: 9.00 am to 9.00 pm","Sat: 3.00 pm to 7.00 pm; Sun: 9.00 am to 7.00 pm","","","","","https://www.myactivesg.com/facilities","https://members.myactivesg.com","","D66FD1CAD49856A1","20170807162544",103.746025847611,1.40002892396216,0
"163","kml_163","WATERWAY PRIMARY SCHOOL","70","PUNGGOL DRIVE","828802","Indoor Sports Hall/Free-To-Play Field","Sat: 3.00 pm to 9.00 pm; Sun: 9.00 am to 9.00 pm","","Sat: 3.00 pm to 7.00 pm; Sun: 9.00 am to 7.00 pm","","","","https://www.myactivesg.com/facilities","https://members.myactivesg.com","","006EA5757AD95E3F","20170807162544",103.918621584845,1.39882799557022,0
"164","kml_164","NAN HUA HIGH SCHOOL","41","CLEMENTI AVENUE 1","129956","Indoor Sports Hall/Chargeable Field","Sat: 3.00 pm to 9.00 pm; Sun: 9.00 am to 9.00 pm","Sat: 3.00 pm to 7.00 pm; Sun: 9.00 am to 7.00 pm","","","","","https://www.myactivesg.com/facilities","https://members.myactivesg.com","","3C873A4E95BB27FC","20170807162544",103.768561212084,1.308095000369,0
"165","kml_165","NAVAL BASE SECONDARY SCHOOL","901","YISHUN RING ROAD","768689","Indoor Sports Hall/Chargeable Field","Sat: 3.00 pm to 9.00 pm; Sun: 9.00 am to 9.00 pm","Sat: 3.00 pm to 7.00 pm; Sun: 9.00 am to 7.00 pm","","","","","https://www.myactivesg.com/facilities","https://members.myactivesg.com","","4F661F619E03C3A6","20170807162544",103.831044092229,1.41924528522298,0
"166","kml_166","NEW TOWN PRIMARY SCHOOL","300","TANGLIN HALT ROAD","148812","Indoor Sports Hall/Free-To-Play Field","Sat: 3.00 pm to 9.00 pm; Sun: 9.00 am to 9.00 pm","","Sat: 3.00 pm to 7.00 pm; Sun: 9.00 am to 7.00 pm","","","","https://www.myactivesg.com/facilities","https://members.myactivesg.com","","9D323EA60B5A3AA9","20170807162544",103.799964820025,1.29981138880028,0
"167","kml_167","NORTH VIEW PRIMARY SCHOOL","210","YISHUN AVENUE 6","768960","Free-To-Play Field","","","Sat: 3.00 pm to 7.00 pm; Sun: 9.00 am to 7.00 pm","","","","https://www.myactivesg.com/facilities","https://members.myactivesg.com","","FE8B3CA16283F7E2","20170807162544",103.848190790462,1.42752325591049,0
"168","kml_168","NORTH VIEW SECONDARY SCHOOL","530","YISHUN RING ROAD","768680","Chargeable Field","","Sat: 3.00 pm to 7.00 pm; Sun: 9.00 am to 7.00 pm","","","","","https://www.myactivesg.com/facilities","https://members.myactivesg.com","","A287BCFAE213EB08","20170807162544",103.844863446894,1.42731880207806,0
"169","kml_169","NORTH VISTA PRIMARY SCHOOL","20","COMPASSVALE LINK","544974","Indoor Sports Hall","Sat: 3.00 pm to 9.00 pm; Sun: 9.00 am to 9.00 pm","","","","","","https://www.myactivesg.com/facilities","https://members.myactivesg.com","","7FF6175C13C4F8AB","20170807162544",103.8958541624,1.3828933921002,0
"170","kml_170","NORTH VISTA SECONDARY SCHOOL","11","RIVERVALE LINK","545081","Indoor Sports Hall/Chargeable Field","Sat: 3.00 pm to 9.00 pm; Sun: 9.00 am to 9.00 pm","Sat: 3.00 pm to 7.00 pm; Sun: 9.00 am to 7.00 pm","","","","","https://www.myactivesg.com/facilities","https://members.myactivesg.com","","BAA1D1199C306B02","20170807162544",103.898926894151,1.38125200629519,0
"171","kml_171","NORTHBROOKS SECONDARY SCHOOL","585","YISHUN RING ROAD","768692","Chargeable Field","","Sat: 3.00 pm to 7.00 pm; Sun: 9.00 am to 7.00 pm","","","","","https://www.myactivesg.com/facilities","https://members.myactivesg.com","","7009D92EEC5EC382","20170807162544",103.845060259965,1.42088101647789,0
"172","kml_172","NORTHLAND PRIMARY SCHOOL","15","YISHUN AVENUE 4","769026","Indoor Sports Hall/Free-To-Play Field","Sat: 3.00 pm to 9.00 pm; Sun: 9.00 am to 9.00 pm","","Sat: 3.00 pm to 7.00 pm; Sun: 9.00 am to 7.00 pm","","","","https://www.myactivesg.com/facilities","https://members.myactivesg.com","","C13E6771D7B57FCD","20170807162544",103.840792923434,1.42130404147184,0
"173","kml_173","NORTHLAND SECONDARY SCHOOL","3","YISHUN STREET 22","768578","Indoor Sports Hall","Fri: 7.00 pm to 9.00 pm; Sat: 3.00 pm to 9.00 pm; Sun: 9.00 am to 9.00 pm","","","","","","https://www.myactivesg.com/facilities","https://members.myactivesg.com","","70E53F26CC2CD40D","20170807162544",103.840104691665,1.435739618383,0
"174","kml_174","NORTHOAKS PRIMARY SCHOOL","61","SEMBAWANG DRIVE","757622","Indoor Sports Hall","Sat: 3.00 pm to 9.00 pm; Sun: 9.00 am to 9.00 pm","","","","","","https://www.myactivesg.com/facilities","https://members.myactivesg.com","","0A3ED2318032B375","20170807162544",103.813610016897,1.45666685569709,0
"175","kml_175","OASIS PRIMARY SCHOOL","71","EDGEFIELD PLAINS","828716","Indoor Sports Hall","Sat: 3.00 pm to 9.00 pm; Sun: 9.00 am to 9.00 pm","","","","","","https://www.myactivesg.com/facilities","https://members.myactivesg.com","","1EAC69D0D15CD706","20170807162544",103.910996443591,1.40440925011584,0
"176","kml_176","ORCHID PARK SECONDARY SCHOOL","10","YISHUN STREET 81","768454","Chargeable Field","","Sat: 3.00 pm to 7.00 pm; Sun: 9.00 am to 7.00 pm","","","","","https://www.myactivesg.com/facilities","https://members.myactivesg.com","","88C6A625991C98FB","20170807162544",103.837859247645,1.41532032350838,0
"177","kml_177","PALM VIEW PRIMARY SCHOOL","150","COMPASSVALE BOW","544822","Indoor Sports Hall","Sat: 3.00 pm to 9.00 pm; Sun: 9.00 am to 9.00 pm","","","","","","https://www.myactivesg.com/facilities","https://members.myactivesg.com","","99226D65BCE358B9","20170807162544",103.891215110784,1.3838407464797,0
"178","kml_178","PARK VIEW PRIMARY SCHOOL","60","PASIR RIS DRIVE 1","519524","Free-To-Play Field","","","Sat: 3.00 pm to 7.00 pm; Sun: 9.00 am to 7.00 pm","","","","https://www.myactivesg.com/facilities","https://members.myactivesg.com","","78706F78D4F298B9","20170807162544",103.93954170473,1.37738069431989,0
"179","kml_179","PASIR RIS CREST SECONDARY SCHOOL","11","PASIR RIS STREET 41","518934","Indoor Sports Hall/Chargeable Field","Mon - Fri: 7.00pm to 10.00pm; Sat: 3.00 pm to 9.00 pm; Sun: 9.00 am to 9.00 pm","Sat: 3.00 pm to 7.00 pm; Sun: 9.00 am to 7.00 pm","","","","","https://www.myactivesg.com/facilities","https://members.myactivesg.com","","86C3EBA5E1914257","20170807162544",103.959362586014,1.37234390271681,0
"180","kml_180","PASIR RIS PRIMARY SCHOOL","5","PASIR RIS STREET 21","518968","Free-To-Play Field","","","Sat: 3.00 pm to 7.00 pm; Sun: 9.00 am to 7.00 pm","","","","https://www.myactivesg.com/facilities","https://members.myactivesg.com","","E33B568EE1D94375","20170807162544",103.96280721227,1.37241870094914,0
"181","kml_181","PASIR RIS SECONDARY SCHOOL","390","TAMPINES STREET 21","529400","Indoor Sports Hall/Chargeable Field","Sat: 3.00 pm to 9.00 pm; Sun: 9.00 am to 9.00 pm","Sat: 3.00 pm to 7.00 pm; Sun: 9.00 am to 7.00 pm","","","","","https://www.myactivesg.com/facilities","https://members.myactivesg.com","","22B13CA621A6A88E","20170807162544",103.948614676232,1.35463956194445,0
"182","kml_182","PEI HWA SECONDARY SCHOOL","21","FERNVALE LINK","797702","Chargeable Field","","Sat: 3.00 pm to 7.00 pm; Sun: 9.00 am to 7.00 pm","","","","","https://www.myactivesg.com/facilities","https://members.myactivesg.com","","A6511FA1DA8FD88C","20170807162544",103.878461751679,1.39037504778676,0
"183","kml_183","PEICAI SECONDARY SCHOOL","10","SERANGOON AVENUE 4","556094","Indoor Sports Hall","Fri: 7.00 pm to 9.00 pm; Sat: 3.00 pm to 9.00 pm; Sun: 9.00 am to 9.00 pm","","","","","","https://www.myactivesg.com/facilities","https://members.myactivesg.com","","BDE48F647759F017","20170807162544",103.870010757251,1.35951582983911,0
